{"type":"FeatureCollection","features":[{"type":"Feature","properties":{"name":"東京タワー","explanation":"東京のランドマークである通信塔。夜景も人気。"},"geometry":{"type":"Point","coordinates":[139.7454,35.6586]},"id":0},{"type":"Feature","properties":{"name":"京都・清水寺","explanation":"世界遺産にも登録された有名な寺院。"},"geometry":{"type":"Point","coordinates":[135.785,34.9948]}},{"type":"Feature","properties":{"name":"大阪城","explanation":"豊臣秀吉が築いた日本の代表的な城の一つ。"},"geometry":{"type":"Point","coordinates":[135.5259,34.6873]}},{"type":"Feature","properties":{"name":"札幌・大通公園","explanation":"冬のさっぽろ雪まつりで有名な都市公園。"},"geometry":{"type":"Point","coordinates":[141.3545,43.0618]}},{"type":"Feature","properties":{"name":"広島・原爆ドーム","explanation":"平和記念公園内の世界遺産。"},"geometry":{"type":"Point","coordinates":[132.4536,34.3955]}},{"type":"Feature","properties":{"name":"奈良公園","explanation":"鹿と触れ合える歴史的な公園。"},"geometry":{"type":"Point","coordinates":[135.8431,34.6851]}},{"type":"Feature","properties":{"name":"富士山","explanation":"日本最高峰の象徴的な山。"},"geometry":{"type":"Point","coordinates":[138.7274,35.3606]}},{"type":"Feature","properties":{"name":"沖縄・首里城","explanation":"琉球王国時代の城跡で、世界遺産の一部。"},"geometry":{"type":"Point","coordinates":[127.7195,26.2173]}},{"type":"Feature","properties":{"name":"金閣寺","explanation":"京都の有名な黄金の寺院。"},"geometry":{"type":"Point","coordinates":[135.7289,35.0394]}},{"type":"Feature","properties":{"name":"日光東照宮","explanation":"徳川家康を祀る豪華な神社。世界遺産。"},"geometry":{"type":"Point","coordinates":[139.5975,36.7578]}},{"type":"Feature","properties":{"name":"浅草寺","explanation":"東京の歴史ある寺院で雷門が有名。"},"geometry":{"type":"Point","coordinates":[139.7967,35.7148]}},{"type":"Feature","properties":{"name":"明治神宮","explanation":"東京の原宿近くにある神社。"},"geometry":{"type":"Point","coordinates":[139.6993,35.6764]}},{"type":"Feature","properties":{"name":"箱根温泉","explanation":"自然と温泉が楽しめる観光地。"},"geometry":{"type":"Point","coordinates":[139.1062,35.2329]}},{"type":"Feature","properties":{"name":"鎌倉大仏","explanation":"鎌倉のシンボル的な大仏像。"},"geometry":{"type":"Point","coordinates":[139.5358,35.3167]}},{"type":"Feature","properties":{"name":"横浜中華街","explanation":"アジア最大級の中華街。"},"geometry":{"type":"Point","coordinates":[139.6466,35.4437]}},{"type":"Feature","properties":{"name":"江ノ島","explanation":"神奈川県の人気の島。"},"geometry":{"type":"Point","coordinates":[139.4828,35.3002]}},{"type":"Feature","properties":{"name":"名古屋城","explanation":"金のしゃちほこが有名な城。"},"geometry":{"type":"Point","coordinates":[136.9066,35.185]}},{"type":"Feature","properties":{"name":"白川郷","explanation":"合掌造りの家屋が並ぶ世界遺産の村。"},"geometry":{"type":"Point","coordinates":[136.8993,36.2709]}},{"type":"Feature","properties":{"name":"高山・古い町並","explanation":"江戸時代の町並みが残る岐阜の町。"},"geometry":{"type":"Point","coordinates":[137.2595,36.1453]}},{"type":"Feature","properties":{"name":"松本城","explanation":"長野県にある国宝の城。"},"geometry":{"type":"Point","coordinates":[137.9708,36.2381]}},{"type":"Feature","properties":{"name":"浅草寺","explanation":"東京の歴史ある寺院で雷門が有名。"},"geometry":{"type":"Point","coordinates":[139.7967,35.7148]}},{"type":"Feature","properties":{"name":"明治神宮","explanation":"東京の原宿近くにある神社。"},"geometry":{"type":"Point","coordinates":[139.6993,35.6764]}},{"type":"Feature","properties":{"name":"箱根温泉","explanation":"自然と温泉が楽しめる観光地。"},"geometry":{"type":"Point","coordinates":[139.1062,35.2329]}},{"type":"Feature","properties":{"name":"鎌倉大仏","explanation":"鎌倉のシンボル的な大仏像。"},"geometry":{"type":"Point","coordinates":[139.5358,35.3167]}},{"type":"Feature","properties":{"name":"横浜中華街","explanation":"アジア最大級の中華街。"},"geometry":{"type":"Point","coordinates":[139.6466,35.4437]}},{"type":"Feature","properties":{"name":"江ノ島","explanation":"神奈川県の人気の島。"},"geometry":{"type":"Point","coordinates":[139.4828,35.3002]}},{"type":"Feature","properties":{"name":"名古屋城","explanation":"金のしゃちほこが有名な城。"},"geometry":{"type":"Point","coordinates":[136.9066,35.185]}},{"type":"Feature","properties":{"name":"白川郷","explanation":"合掌造りの家屋が並ぶ世界遺産の村。"},"geometry":{"type":"Point","coordinates":[136.8993,36.2709]}},{"type":"Feature","properties":{"name":"高山・古い町並","explanation":"江戸時代の町並みが残る岐阜の町。"},"geometry":{"type":"Point","coordinates":[137.2595,36.1453]}},{"type":"Feature","properties":{"name":"松本城","explanation":"長野県にある国宝の城。"},"geometry":{"type":"Point","coordinates":[137.9708,36.2381]}},{"type":"Feature","properties":{"name":"浅草寺","explanation":"東京の歴史ある寺院で雷門が有名。"},"geometry":{"type":"Point","coordinates":[139.7967,35.7148]}},{"type":"Feature","properties":{"name":"明治神宮","explanation":"東京の原宿近くにある神社。"},"geometry":{"type":"Point","coordinates":[139.6993,35.6764]}},{"type":"Feature","properties":{"name":"箱根温泉","explanation":"自然と温泉が楽しめる観光地。"},"geometry":{"type":"Point","coordinates":[139.1062,35.2329]}},{"type":"Feature","properties":{"name":"鎌倉大仏","explanation":"鎌倉のシンボル的な大仏像。"},"geometry":{"type":"Point","coordinates":[139.5358,35.3167]}},{"type":"Feature","properties":{"name":"横浜中華街","explanation":"アジア最大級の中華街。"},"geometry":{"type":"Point","coordinates":[139.6466,35.4437]}},{"type":"Feature","properties":{"name":"江ノ島","explanation":"神奈川県の人気の島。"},"geometry":{"type":"Point","coordinates":[139.4828,35.3002]}},{"type":"Feature","properties":{"name":"名古屋城","explanation":"金のしゃちほこが有名な城。"},"geometry":{"type":"Point","coordinates":[136.9066,35.185]}},{"type":"Feature","properties":{"name":"白川郷","explanation":"合掌造りの家屋が並ぶ世界遺産の村。"},"geometry":{"type":"Point","coordinates":[136.8993,36.2709]}},{"type":"Feature","properties":{"name":"高山・古い町並","explanation":"江戸時代の町並みが残る岐阜の町。"},"geometry":{"type":"Point","coordinates":[137.2595,36.1453]}},{"type":"Feature","properties":{"name":"松本城","explanation":"長野県にある国宝の城。"},"geometry":{"type":"Point","coordinates":[137.9708,36.2381]}},{"type":"Feature","properties":{"name":"浅草寺","explanation":"東京の歴史ある寺院で雷門が有名。"},"geometry":{"type":"Point","coordinates":[139.7967,35.7148]}},{"type":"Feature","properties":{"name":"明治神宮","explanation":"東京の原宿近くにある神社。"},"geometry":{"type":"Point","coordinates":[139.6993,35.6764]}},{"type":"Feature","properties":{"name":"箱根温泉","explanation":"自然と温泉が楽しめる観光地。"},"geometry":{"type":"Point","coordinates":[139.1062,35.2329]}},{"type":"Feature","properties":{"name":"鎌倉大仏","explanation":"鎌倉のシンボル的な大仏像。"},"geometry":{"type":"Point","coordinates":[139.5358,35.3167]}},{"type":"Feature","properties":{"name":"横浜中華街","explanation":"アジア最大級の中華街。"},"geometry":{"type":"Point","coordinates":[139.6466,35.4437]}},{"type":"Feature","properties":{"name":"江ノ島","explanation":"神奈川県の人気の島。"},"geometry":{"type":"Point","coordinates":[139.4828,35.3002]}},{"type":"Feature","properties":{"name":"名古屋城","explanation":"金のしゃちほこが有名な城。"},"geometry":{"type":"Point","coordinates":[136.9066,35.185]}},{"type":"Feature","properties":{"name":"白川郷","explanation":"合掌造りの家屋が並ぶ世界遺産の村。"},"geometry":{"type":"Point","coordinates":[136.8993,36.2709]}},{"type":"Feature","properties":{"name":"高山・古い町並","explanation":"江戸時代の町並みが残る岐阜の町。"},"geometry":{"type":"Point","coordinates":[137.2595,36.1453]}},{"type":"Feature","properties":{"name":"松本城","explanation":"長野県にある国宝の城。"},"geometry":{"type":"Point","coordinates":[137.9708,36.2381]}},{"type":"Feature","properties":{"name":"浅草寺","explanation":"東京の歴史ある寺院で雷門が有名。"},"geometry":{"type":"Point","coordinates":[139.7967,35.7148]}},{"type":"Feature","properties":{"name":"明治神宮","explanation":"東京の原宿近くにある神社。"},"geometry":{"type":"Point","coordinates":[139.6993,35.6764]}},{"type":"Feature","properties":{"name":"箱根温泉","explanation":"自然と温泉が楽しめる観光地。"},"geometry":{"type":"Point","coordinates":[139.1062,35.2329]}},{"type":"Feature","properties":{"name":"鎌倉大仏","explanation":"鎌倉のシンボル的な大仏像。"},"geometry":{"type":"Point","coordinates":[139.5358,35.3167]}},{"type":"Feature","properties":{"name":"横浜中華街","explanation":"アジア最大級の中華街。"},"geometry":{"type":"Point","coordinates":[139.6466,35.4437]}},{"type":"Feature","properties":{"name":"江ノ島","explanation":"神奈川県の人気の島。"},"geometry":{"type":"Point","coordinates":[139.4828,35.3002]}},{"type":"Feature","properties":{"name":"名古屋城","explanation":"金のしゃちほこが有名な城。"},"geometry":{"type":"Point","coordinates":[136.9066,35.185]}},{"type":"Feature","properties":{"name":"白川郷","explanation":"合掌造りの家屋が並ぶ世界遺産の村。"},"geometry":{"type":"Point","coordinates":[136.8993,36.2709]}},{"type":"Feature","properties":{"name":"高山・古い町並","explanation":"江戸時代の町並みが残る岐阜の町。"},"geometry":{"type":"Point","coordinates":[137.2595,36.1453]}},{"type":"Feature","properties":{"name":"松本城","explanation":"長野県にある国宝の城。"},"geometry":{"type":"Point","coordinates":[137.9708,36.2381]}},{"type":"Feature","properties":{"name":"浅草寺","explanation":"東京の歴史ある寺院で雷門が有名。"},"geometry":{"type":"Point","coordinates":[139.7967,35.7148]}},{"type":"Feature","properties":{"name":"明治神宮","explanation":"東京の原宿近くにある神社。"},"geometry":{"type":"Point","coordinates":[139.6993,35.6764]}},{"type":"Feature","properties":{"name":"箱根温泉","explanation":"自然と温泉が楽しめる観光地。"},"geometry":{"type":"Point","coordinates":[139.1062,35.2329]}},{"type":"Feature","properties":{"name":"鎌倉大仏","explanation":"鎌倉のシンボル的な大仏像。"},"geometry":{"type":"Point","coordinates":[139.5358,35.3167]}},{"type":"Feature","properties":{"name":"横浜中華街","explanation":"アジア最大級の中華街。"},"geometry":{"type":"Point","coordinates":[139.6466,35.4437]}},{"type":"Feature","properties":{"name":"江ノ島","explanation":"神奈川県の人気の島。"},"geometry":{"type":"Point","coordinates":[139.4828,35.3002]}},{"type":"Feature","properties":{"name":"名古屋城","explanation":"金のしゃちほこが有名な城。"},"geometry":{"type":"Point","coordinates":[136.9066,35.185]}},{"type":"Feature","properties":{"name":"白川郷","explanation":"合掌造りの家屋が並ぶ世界遺産の村。"},"geometry":{"type":"Point","coordinates":[136.8993,36.2709]}},{"type":"Feature","properties":{"name":"高山・古い町並","explanation":"江戸時代の町並みが残る岐阜の町。"},"geometry":{"type":"Point","coordinates":[137.2595,36.1453]}},{"type":"Feature","properties":{"name":"松本城","explanation":"長野県にある国宝の城。"},"geometry":{"type":"Point","coordinates":[137.9708,36.2381]}},{"type":"Feature","properties":{"name":"浅草寺","explanation":"東京の歴史ある寺院で雷門が有名。"},"geometry":{"type":"Point","coordinates":[139.7967,35.7148]}},{"type":"Feature","properties":{"name":"明治神宮","explanation":"東京の原宿近くにある神社。"},"geometry":{"type":"Point","coordinates":[139.6993,35.6764]}},{"type":"Feature","properties":{"name":"箱根温泉","explanation":"自然と温泉が楽しめる観光地。"},"geometry":{"type":"Point","coordinates":[139.1062,35.2329]}},{"type":"Feature","properties":{"name":"鎌倉大仏","explanation":"鎌倉のシンボル的な大仏像。"},"geometry":{"type":"Point","coordinates":[139.5358,35.3167]}},{"type":"Feature","properties":{"name":"横浜中華街","explanation":"アジア最大級の中華街。"},"geometry":{"type":"Point","coordinates":[139.6466,35.4437]}},{"type":"Feature","properties":{"name":"江ノ島","explanation":"神奈川県の人気の島。"},"geometry":{"type":"Point","coordinates":[139.4828,35.3002]}},{"type":"Feature","properties":{"name":"名古屋城","explanation":"金のしゃちほこが有名な城。"},"geometry":{"type":"Point","coordinates":[136.9066,35.185]}},{"type":"Feature","properties":{"name":"白川郷","explanation":"合掌造りの家屋が並ぶ世界遺産の村。"},"geometry":{"type":"Point","coordinates":[136.8993,36.2709]}},{"type":"Feature","properties":{"name":"高山・古い町並","explanation":"江戸時代の町並みが残る岐阜の町。"},"geometry":{"type":"Point","coordinates":[137.2595,36.1453]}},{"type":"Feature","properties":{"name":"松本城","explanation":"長野県にある国宝の城。"},"geometry":{"type":"Point","coordinates":[137.9708,36.2381]}},{"type":"Feature","properties":{"name":"浅草寺","explanation":"東京の歴史ある寺院で雷門が有名。"},"geometry":{"type":"Point","coordinates":[139.7967,35.7148]}},{"type":"Feature","properties":{"name":"明治神宮","explanation":"東京の原宿近くにある神社。"},"geometry":{"type":"Point","coordinates":[139.6993,35.6764]}},{"type":"Feature","properties":{"name":"箱根温泉","explanation":"自然と温泉が楽しめる観光地。"},"geometry":{"type":"Point","coordinates":[139.1062,35.2329]}},{"type":"Feature","properties":{"name":"鎌倉大仏","explanation":"鎌倉のシンボル的な大仏像。"},"geometry":{"type":"Point","coordinates":[139.5358,35.3167]}},{"type":"Feature","properties":{"name":"横浜中華街","explanation":"アジア最大級の中華街。"},"geometry":{"type":"Point","coordinates":[139.6466,35.4437]}},{"type":"Feature","properties":{"name":"江ノ島","explanation":"神奈川県の人気の島。"},"geometry":{"type":"Point","coordinates":[139.4828,35.3002]}},{"type":"Feature","properties":{"name":"名古屋城","explanation":"金のしゃちほこが有名な城。"},"geometry":{"type":"Point","coordinates":[136.9066,35.185]}},{"type":"Feature","properties":{"name":"白川郷","explanation":"合掌造りの家屋が並ぶ世界遺産の村。"},"geometry":{"type":"Point","coordinates":[136.8993,36.2709]}},{"type":"Feature","properties":{"name":"高山・古い町並","explanation":"江戸時代の町並みが残る岐阜の町。"},"geometry":{"type":"Point","coordinates":[137.2595,36.1453]}},{"type":"Feature","properties":{"name":"松本城","explanation":"長野県にある国宝の城。"},"geometry":{"type":"Point","coordinates":[137.9708,36.2381]}},{"type":"Feature","properties":{"name":"浅草寺","explanation":"東京の歴史ある寺院で雷門が有名。"},"geometry":{"type":"Point","coordinates":[139.7967,35.7148]},"id":90},{"type":"Feature","properties":{"name":"明治神宮","explanation":"東京の原宿近くにある神社。"},"geometry":{"type":"Point","coordinates":[139.6993,35.6764]},"id":91},{"type":"Feature","properties":{"name":"箱根温泉","explanation":"自然と温泉が楽しめる観光地。"},"geometry":{"type":"Point","coordinates":[139.1062,35.2329]},"id":92},{"type":"Feature","properties":{"name":"鎌倉大仏","explanation":"鎌倉のシンボル的な大仏像。"},"geometry":{"type":"Point","coordinates":[139.5358,35.3167]}},{"type":"Feature","properties":{"name":"横浜中華街","explanation":"アジア最大級の中華街。"},"geometry":{"type":"Point","coordinates":[139.6466,35.4437]}},{"type":"Feature","properties":{"name":"江ノ島","explanation":"神奈川県の人気の島。"},"geometry":{"type":"Point","coordinates":[139.4828,35.3002]},"id":95},{"type":"Feature","properties":{"name":"名古屋城","explanation":"金のしゃちほこが有名な城。"},"geometry":{"type":"Point","coordinates":[136.9066,35.185]}},{"type":"Feature","properties":{"name":"白川郷","explanation":"合掌造りの家屋が並ぶ世界遺産の村。"},"geometry":{"type":"Point","coordinates":[136.8993,36.2709]}},{"type":"Feature","properties":{"name":"高山・古い町並","explanation":"江戸時代の町並みが残る岐阜の町。"},"geometry":{"type":"Point","coordinates":[137.2595,36.1453]}},{"type":"Feature","properties":{"name":"松本城","explanation":"長野県にある国宝の城。"},"geometry":{"type":"Point","coordinates":[137.9708,36.2381]}}]}