{"type":"FeatureCollection","features":[{"type":"Feature","properties":{"name":"稲荷堂","enname":"","カテゴリ":"百景","カテゴリ補足":"鎮守の森と祭り","ジャンル":"観る","ジャンル_1":"","ジャンル_2":"","ジャンル_3":"","季節":"","場所":"","郵便番号":1410001,"都道府県名":"東京都","市区町村名":"品川区","行政区名":"","住所":"北品川1-14-6","住所(かな)":"","説明(日本語)":"品川区の北東に位置する豊川稲荷の稲荷堂。大東京市誕生の昭和7年、当時の八ツ山埋立地に旧品川区の鬼門（丑寅）除けとして創建されたという。","説明(英語)":"","電話番号":"","FAX番号":"","営業時間":"","開所時刻":"","閉所時刻":"","定休日":"","利用料金":"","画像URL":"","創設日":"","創設者":"","所在地（基本、名称と同じもの）":"稲荷堂","名称(中国語簡体字)":"","説明(中国語簡体字)":"","名称(中国語繁体字)":"","説明(中国語繁体字)":"","名称(韓国語)":"","説明(韓国語)":"","名称(ポルトガル語)":"","説明(ポルトガル語)":"","標準地域コード":"http://statdb.nstac.go.jp/lod/sac/C13109"},"geometry":{"type":"Point","coordinates":[139.7431679,35.6248135]}},{"type":"Feature","properties":{"name":"旧東海道のにぎわい","enname":"","カテゴリ":"百景","カテゴリ補足":"古い顔・新しい顔","ジャンル":"観る","ジャンル_1":"","ジャンル_2":"","ジャンル_3":"","季節":"","場所":"","郵便番号":1410001,"都道府県名":"東京都","市区町村名":"品川区","行政区名":"","住所":"北品川1-30-9","住所(かな)":"","説明(日本語)":"東海道五十三次・第一番目の宿場、品川宿。慶応2年（1866）の記録では1,678軒の家数、7,554人が住んでいたという記録が残る。現在の旧東海道は往時の幅員を残す。 ","説明(英語)":"","電話番号":"","FAX番号":"","営業時間":"","開所時刻":"","閉所時刻":"","定休日":"","利用料金":"","画像URL":"","創設日":"","創設者":"","所在地（基本、名称と同じもの）":"旧東海道のにぎわい","名称(中国語簡体字)":"","説明(中国語簡体字)":"","名称(中国語繁体字)":"","説明(中国語繁体字)":"","名称(韓国語)":"","説明(韓国語)":"","名称(ポルトガル語)":"","説明(ポルトガル語)":"","標準地域コード":"http://statdb.nstac.go.jp/lod/sac/C13109"},"geometry":{"type":"Point","coordinates":[139.7425699,35.6201219]}},{"type":"Feature","properties":{"name":"品川浦と船だまり","enname":"","カテゴリ":"百景","カテゴリ補足":"古い顔・新しい顔","ジャンル":"観る","ジャンル_1":"","ジャンル_2":"","ジャンル_3":"","季節":"","場所":"","郵便番号":1400002,"都道府県名":"東京都","市区町村名":"品川区","行政区名":"","住所":"東品川1-7","住所(かな)":"","説明(日本語)":"かつて魚介類の豊富な水揚げを誇り、海苔の主要な産地でもあった品川浦。現在ではつり船や屋形船が舳先(へさき)を並べ、背景のビル群との対比が興味をそそる。  ","説明(英語)":"","電話番号":"","FAX番号":"","営業時間":"","開所時刻":"","閉所時刻":"","定休日":"","利用料金":"","画像URL":"","創設日":"","創設者":"","所在地（基本、名称と同じもの）":"品川浦と船だまり","名称(中国語簡体字)":"","説明(中国語簡体字)":"","名称(中国語繁体字)":"","説明(中国語繁体字)":"","名称(韓国語)":"","説明(韓国語)":"","名称(ポルトガル語)":"","説明(ポルトガル語)":"","標準地域コード":"http://statdb.nstac.go.jp/lod/sac/C13109"},"geometry":{"type":"Point","coordinates":[139.7418514,35.6216083]}},{"type":"Feature","properties":{"name":"虚空蔵尊（養願寺）の縁日","enname":"","カテゴリ":"百景","カテゴリ補足":"鎮守と森と祭り","ジャンル":"観る","ジャンル_1":"","ジャンル_2":"","ジャンル_3":"","季節":"","場所":"","郵便番号":1410001,"都道府県名":"東京都","市区町村名":"品川区","行政区名":"","住所":"北品川2-3-12","住所(かな)":"","説明(日本語)":"虚空蔵菩薩を本尊とする養願寺。子どもが13歳になったときにお参りするという虚空蔵信仰から、13日にお参りをする人が多い。","説明(英語)":"","電話番号":"","FAX番号":"","営業時間":"","開所時刻":"","閉所時刻":"","定休日":"","利用料金":"","画像URL":"","創設日":"","創設者":"","所在地（基本、名称と同じもの）":"虚空蔵尊（養願寺）の縁日","名称(中国語簡体字)":"","説明(中国語簡体字)":"","名称(中国語繁体字)":"","説明(中国語繁体字)":"","名称(韓国語)":"","説明(韓国語)":"","名称(ポルトガル語)":"","説明(ポルトガル語)":"","標準地域コード":"http://statdb.nstac.go.jp/lod/sac/C13109"},"geometry":{"type":"Point","coordinates":[139.7424293,35.6191503]}},{"type":"Feature","properties":{"name":"聖蹟公園（本陣跡）","enname":"","カテゴリ":"百景","カテゴリ補足":"歴史の足跡、文化といこい","ジャンル":"観る","ジャンル_1":"","ジャンル_2":"","ジャンル_3":"","季節":"","場所":"","郵便番号":1410001,"都道府県名":"東京都","市区町村名":"品川区","行政区名":"","住所":"北品川2-7-21","住所(かな)":"","説明(日本語)":"大名や勅使が休息・宿泊する旅宿を本陣といった。明治元年、明治天皇行幸の際の行在所にもなったこの地は、「東海道品川宿本陣跡」として歴史を重んじた公園となっている。 ","説明(英語)":"","電話番号":"","FAX番号":"","営業時間":"","開所時刻":"","閉所時刻":"","定休日":"","利用料金":"","画像URL":"","創設日":"","創設者":"","所在地（基本、名称と同じもの）":"聖蹟公園（本陣跡）","名称(中国語簡体字)":"","説明(中国語簡体字)":"","名称(中国語繁体字)":"","説明(中国語繁体字)":"","名称(韓国語)":"","説明(韓国語)":"","名称(ポルトガル語)":"","説明(ポルトガル語)":"","標準地域コード":"http://statdb.nstac.go.jp/lod/sac/C13109"},"geometry":{"type":"Point","coordinates":[139.7439431,35.6188087]}},{"type":"Feature","properties":{"name":"鎮守橋から新緑の荏原神社を望む","enname":"","カテゴリ":"百景","カテゴリ補足":"鎮守と森と祭り","ジャンル":"観る","ジャンル_1":"","ジャンル_2":"","ジャンル_3":"","季節":"","場所":"","郵便番号":1410001,"都道府県名":"東京都","市区町村名":"品川区","行政区名":"","住所":"北品川2-30-28","住所(かな)":"","説明(日本語)":"南品川の鎮守として親しまれている荏原神社。河川改修前、昭和初期までは目黒川は神社の北側を流れていた。目黒川にかかる鎮守橋から望む荏原神社は緑の木立の中にある。 ","説明(英語)":"","電話番号":"","FAX番号":"","営業時間":"","開所時刻":"","閉所時刻":"","定休日":"","利用料金":"","画像URL":"http://www.city.shinagawa.tokyo.jp/ct/image000040500/chinju.jpg","創設日":"","創設者":"","所在地（基本、名称と同じもの）":"鎮守橋から新緑の荏原神社を望む","名称(中国語簡体字)":"","説明(中国語簡体字)":"","名称(中国語繁体字)":"","説明(中国語繁体字)":"","名称(韓国語)":"","説明(韓国語)":"","名称(ポルトガル語)":"","説明(ポルトガル語)":"","標準地域コード":"http://statdb.nstac.go.jp/lod/sac/C13109"},"geometry":{"type":"Point","coordinates":[139.7438265,35.6171117]}},{"type":"Feature","properties":{"name":"荏原神社の天王祭<6月>","enname":"","カテゴリ":"百景","カテゴリ補足":"歴史の足跡、鎮守と森と祭り","ジャンル":"観る","ジャンル_1":"","ジャンル_2":"","ジャンル_3":"","季節":"","場所":"","郵便番号":1410001,"都道府県名":"東京都","市区町村名":"品川区","行政区名":"","住所":"北品川2-30-28","住所(かな)":"","説明(日本語)":"荏原神社の三大祭りの一つ。豊漁と豊作を祈る「神輿の海中渡御」が行われることから「かっぱ祭り」とも呼ばれる。今はお台場海浜公園周辺で行われている。","説明(英語)":"","電話番号":"","FAX番号":"","営業時間":"","開所時刻":"","閉所時刻":"","定休日":"","利用料金":"","画像URL":"","創設日":"","創設者":"","所在地（基本、名称と同じもの）":"荏原神社の天王祭<6月>","名称(中国語簡体字)":"","説明(中国語簡体字)":"","名称(中国語繁体字)":"","説明(中国語繁体字)":"","名称(韓国語)":"","説明(韓国語)":"","名称(ポルトガル語)":"","説明(ポルトガル語)":"","標準地域コード":"http://statdb.nstac.go.jp/lod/sac/C13109"},"geometry":{"type":"Point","coordinates":[139.7438265,35.6171117]}},{"type":"Feature","properties":{"name":"品川神社","enname":"","カテゴリ":"百景","カテゴリ補足":"歴史の足跡、鎮守と森と祭り","ジャンル":"観る","ジャンル_1":"","ジャンル_2":"","ジャンル_3":"","季節":"","場所":"","郵便番号":1410001,"都道府県名":"東京都","市区町村名":"品川区","行政区名":"","住所":"北品川3-7-15","住所(かな)":"","説明(日本語)":"北品川の鎮守で「北の天王様」として親しまれている。神社には石造灯篭、石造鳥居、水盤、富士塚等の建造物や徳川家光寄進と伝えられる神輿等、文化財が多くある。","説明(英語)":"","電話番号":"","FAX番号":"","営業時間":"","開所時刻":"","閉所時刻":"","定休日":"","利用料金":"","画像URL":"http://www.city.shinagawa.tokyo.jp/ct/image000001400/01_08_hyakkei.jpg","創設日":"","創設者":"","所在地（基本、名称と同じもの）":"品川神社","名称(中国語簡体字)":"","説明(中国語簡体字)":"","名称(中国語繁体字)":"","説明(中国語繁体字)":"","名称(韓国語)":"","説明(韓国語)":"","名称(ポルトガル語)":"","説明(ポルトガル語)":"","標準地域コード":"http://statdb.nstac.go.jp/lod/sac/C13109"},"geometry":{"type":"Point","coordinates":[139.739616,35.6184352]}},{"type":"Feature","properties":{"name":"品川神社の例大祭<6月>","enname":"","カテゴリ":"百景","カテゴリ補足":"鎮守の森と祭り","ジャンル":"観る","ジャンル_1":"","ジャンル_2":"","ジャンル_3":"","季節":"","場所":"","郵便番号":1410001,"都道府県名":"東京都","市区町村名":"品川区","行政区名":"","住所":"北品川3-7-15","住所(かな)":"","説明(日本語)":"毎年6月上旬に行われる品川神社の例大祭は「北の天王祭」。千貫神輿と呼ばれる大神輿をかつぎ、「品川拍子」の独特なテンポに合せて各町内を練り歩く様子は勇壮なもの。","説明(英語)":"","電話番号":"","FAX番号":"","営業時間":"","開所時刻":"","閉所時刻":"","定休日":"","利用料金":"","画像URL":"","創設日":"","創設者":"","所在地（基本、名称と同じもの）":"品川神社の例大祭<6月>","名称(中国語簡体字)":"","説明(中国語簡体字)":"","名称(中国語繁体字)":"","説明(中国語繁体字)":"","名称(韓国語)":"","説明(韓国語)":"","名称(ポルトガル語)":"","説明(ポルトガル語)":"","標準地域コード":"http://statdb.nstac.go.jp/lod/sac/C13109"},"geometry":{"type":"Point","coordinates":[139.739616,35.6184352]}},{"type":"Feature","properties":{"name":"品川神社の太太神楽","enname":"","カテゴリ":"百景","カテゴリ補足":"歴史の足跡、鎮守と森と祭り","ジャンル":"観る","ジャンル_1":"","ジャンル_2":"","ジャンル_3":"","季節":"","場所":"","郵便番号":1410001,"都道府県名":"東京都","市区町村名":"品川区","行政区名":"","住所":"北品川3-7-15","住所(かな)":"","説明(日本語)":"東京都の無形文化財に指定されている「太太神楽」。五穀豊饒、悪疫退散、無病息災等を祈願して舞い、現在、年4回、氏子保存会によって神社に奉納されている。","説明(英語)":"","電話番号":"","FAX番号":"","営業時間":"","開所時刻":"","閉所時刻":"","定休日":"","利用料金":"","画像URL":"","創設日":"","創設者":"","所在地（基本、名称と同じもの）":"品川神社の太太神楽","名称(中国語簡体字)":"","説明(中国語簡体字)":"","名称(中国語繁体字)":"","説明(中国語繁体字)":"","名称(韓国語)":"","説明(韓国語)":"","名称(ポルトガル語)":"","説明(ポルトガル語)":"","標準地域コード":"http://statdb.nstac.go.jp/lod/sac/C13109"},"geometry":{"type":"Point","coordinates":[139.739616,35.6184352]}},{"type":"Feature","properties":{"name":"東海七福神めぐり","enname":"","カテゴリ":"百景","カテゴリ補足":"鎮守の森と祭り","ジャンル":"観る","ジャンル_1":"","ジャンル_2":"","ジャンル_3":"","季節":"","場所":"","郵便番号":1410001,"都道府県名":"東京都","市区町村名":"品川区","行政区名":"","住所":"北品川3-7-15","住所(かな)":"","説明(日本語)":"昭和7年制定の旧東海道に沿った七福神めぐり。品川神社(大黒天)、養願寺(布袋尊)、一心寺(寿老人)、荏原神社(恵比須)、品川寺(毘沙門天)、天祖諏訪神社(福禄寿)、磐井神社(弁財天)をめぐる。 ","説明(英語)":"","電話番号":"","FAX番号":"","営業時間":"","開所時刻":"","閉所時刻":"","定休日":"","利用料金":"","画像URL":"","創設日":"","創設者":"","所在地（基本、名称と同じもの）":"東海七福神めぐり","名称(中国語簡体字)":"","説明(中国語簡体字)":"","名称(中国語繁体字)":"","説明(中国語繁体字)":"","名称(韓国語)":"","説明(韓国語)":"","名称(ポルトガル語)":"","説明(ポルトガル語)":"","標準地域コード":"http://statdb.nstac.go.jp/lod/sac/C13109"},"geometry":{"type":"Point","coordinates":[139.739616,35.6184352]}},{"type":"Feature","properties":{"name":"板垣退助の墓","enname":"","カテゴリ":"百景","カテゴリ補足":"歴史の足跡","ジャンル":"観る","ジャンル_1":"","ジャンル_2":"","ジャンル_3":"","季節":"","場所":"","郵便番号":1410001,"都道府県名":"東京都","市区町村名":"品川区","行政区名":"","住所":"北品川3-7-15","住所(かな)":"","説明(日本語)":"自由民権運動に力を尽くした板垣退助の墓は、品川神社社殿裏にある。傍らには「板垣死すとも自由は死せず」の文言を刻んだ碑がある。","説明(英語)":"","電話番号":"","FAX番号":"","営業時間":"","開所時刻":"","閉所時刻":"","定休日":"","利用料金":"","画像URL":"","創設日":"","創設者":"","所在地（基本、名称と同じもの）":"板垣退助の墓","名称(中国語簡体字)":"","説明(中国語簡体字)":"","名称(中国語繁体字)":"","説明(中国語繁体字)":"","名称(韓国語)":"","説明(韓国語)":"","名称(ポルトガル語)":"","説明(ポルトガル語)":"","標準地域コード":"http://statdb.nstac.go.jp/lod/sac/C13109"},"geometry":{"type":"Point","coordinates":[139.739616,35.6184352]}},{"type":"Feature","properties":{"name":"権現山公園","enname":"","カテゴリ":"百景","カテゴリ補足":"花と緑、文化といこい","ジャンル":"観る","ジャンル_1":"","ジャンル_2":"","ジャンル_3":"","季節":"","場所":"","郵便番号":1410001,"都道府県名":"東京都","市区町村名":"品川区","行政区名":"","住所":"北品川3-9-5","住所(かな)":"","説明(日本語)":"江戸時代の桜の名所・御殿山に連なる高台（権現山）に位置する細長い公園。遊戯ゾーンと桜の木を中心とした林ゾーンに分かれている。","説明(英語)":"","電話番号":"","FAX番号":"","営業時間":"","開所時刻":"","閉所時刻":"","定休日":"","利用料金":"","画像URL":"","創設日":"","創設者":"","所在地（基本、名称と同じもの）":"権現山公園","名称(中国語簡体字)":"","説明(中国語簡体字)":"","名称(中国語繁体字)":"","説明(中国語繁体字)":"","名称(韓国語)":"","説明(韓国語)":"","名称(ポルトガル語)":"","説明(ポルトガル語)":"","標準地域コード":"http://statdb.nstac.go.jp/lod/sac/C13109"},"geometry":{"type":"Point","coordinates":[139.7377658,35.6185752]}},{"type":"Feature","properties":{"name":"桜の中での入学式","enname":"","カテゴリ":"百景","カテゴリ補足":"歴史の足跡、花と緑","ジャンル":"観る","ジャンル_1":"","ジャンル_2":"","ジャンル_3":"","季節":"","場所":"","郵便番号":1410001,"都道府県名":"東京都","市区町村名":"品川区","行政区名":"","住所":"北品川3-9-30","住所(かな)":"","説明(日本語)":"明治7年、区内で最も古い公立学校として開校。基金を集め校門から続く桜の苗木を植えたのは終戦の年の卒業生。平成22年に施設一体型小中一貫校「品川学園」に、平成28年には義務教育学校となった。","説明(英語)":"","電話番号":"","FAX番号":"","営業時間":"","開所時刻":"","閉所時刻":"","定休日":"","利用料金":"","画像URL":"","創設日":"","創設者":"","所在地（基本、名称と同じもの）":"桜の中での入学式","名称(中国語簡体字)":"","説明(中国語簡体字)":"","名称(中国語繁体字)":"","説明(中国語繁体字)":"","名称(韓国語)":"","説明(韓国語)":"","名称(ポルトガル語)":"","説明(ポルトガル語)":"","標準地域コード":"http://statdb.nstac.go.jp/lod/sac/C13109"},"geometry":{"type":"Point","coordinates":[139.7379825,35.6180503]}},{"type":"Feature","properties":{"name":"子供の森公園","enname":"","カテゴリ":"百景","カテゴリ補足":"文化といこい","ジャンル":"観る","ジャンル_1":"","ジャンル_2":"","ジャンル_3":"","季節":"","場所":"","郵便番号":1410001,"都道府県名":"東京都","市区町村名":"品川区","行政区名":"","住所":"北品川3-10-13","住所(かな)":"","説明(日本語)":"区内の子どもたちの要望が実を結んだ公園。大小9基の恐竜の遊具があることから、人気を集めている。通称「かいじゅう公園」。","説明(英語)":"","電話番号":"","FAX番号":"","営業時間":"","開所時刻":"","閉所時刻":"","定休日":"","利用料金":"","画像URL":"","創設日":"","創設者":"","所在地（基本、名称と同じもの）":"子供の森公園","名称(中国語簡体字)":"","説明(中国語簡体字)":"","名称(中国語繁体字)":"","説明(中国語繁体字)":"","名称(韓国語)":"","説明(韓国語)":"","名称(ポルトガル語)":"","説明(ポルトガル語)":"","標準地域コード":"http://statdb.nstac.go.jp/lod/sac/C13109"},"geometry":{"type":"Point","coordinates":[139.738229,35.6163449]}},{"type":"Feature","properties":{"name":"八ツ山橋","enname":"","カテゴリ":"百景","カテゴリ補足":"古い顔・新しい顔","ジャンル":"観る","ジャンル_1":"","ジャンル_2":"","ジャンル_3":"","季節":"","場所":"","郵便番号":1410001,"都道府県名":"東京都","市区町村名":"品川区","行政区名":"","住所":"北品川4","住所(かな)":"","説明(日本語)":"東海道と東海道線を立体交差させるために、明治5年に架けられ、現在の橋は昭和60年に架け替えられた。昭和29年公開の映画『ゴジラ』では、ゴジラの東京初上陸の地となった。","説明(英語)":"","電話番号":"","FAX番号":"","営業時間":"","開所時刻":"","閉所時刻":"","定休日":"","利用料金":"","画像URL":"","創設日":"","創設者":"","所在地（基本、名称と同じもの）":"八ツ山橋","名称(中国語簡体字)":"","説明(中国語簡体字)":"","名称(中国語繁体字)":"","説明(中国語繁体字)":"","名称(韓国語)":"","説明(韓国語)":"","名称(ポルトガル語)":"","説明(ポルトガル語)":"","標準地域コード":"http://statdb.nstac.go.jp/lod/sac/C13109"},"geometry":{"type":"Point","coordinates":[139.7357186,35.6219581]}},{"type":"Feature","properties":{"name":"新八ツ山橋から品川教会方向を望む","enname":"","カテゴリ":"百景","カテゴリ補足":"古い顔・新しい顔","ジャンル":"観る","ジャンル_1":"","ジャンル_2":"","ジャンル_3":"","季節":"","場所":"","郵便番号":1410001,"都道府県名":"東京都","市区町村名":"品川区","行政区名":"","住所":"北品川4","住所(かな)":"","説明(日本語)":"昭和38年、第一京浜国道の渋滞を避けるため新八ツ山橋が架けられた。ここからキリスト品川教会のある御殿山方向を望むと、新しい都市の風景が広がって見える。 ","説明(英語)":"","電話番号":"","FAX番号":"","営業時間":"","開所時刻":"","閉所時刻":"","定休日":"","利用料金":"","画像URL":"","創設日":"","創設者":"","所在地（基本、名称と同じもの）":"新八ツ山橋から品川教会方向を望む","名称(中国語簡体字)":"","説明(中国語簡体字)":"","名称(中国語繁体字)":"","説明(中国語繁体字)":"","名称(韓国語)":"","説明(韓国語)":"","名称(ポルトガル語)":"","説明(ポルトガル語)":"","標準地域コード":"http://statdb.nstac.go.jp/lod/sac/C13109"},"geometry":{"type":"Point","coordinates":[139.7357186,35.6219581]}},{"type":"Feature","properties":{"name":"原美術館","enname":"","カテゴリ":"百景","カテゴリ補足":"文化といこい","ジャンル":"観る","ジャンル_1":"","ジャンル_2":"","ジャンル_3":"","季節":"","場所":"","郵便番号":1410001,"都道府県名":"東京都","市区町村名":"品川区","行政区名":"","住所":"北品川4-7-25","住所(かな)":"","説明(日本語)":"昭和13年建造の旧原邸を改装し、昭和54年に現代美術専門館として開館。各種イベントを通して国内外の現代美術を紹介している。","説明(英語)":"","電話番号":"","FAX番号":"","営業時間":"","開所時刻":"","閉所時刻":"","定休日":"","利用料金":"","画像URL":"http://www.city.shinagawa.tokyo.jp/ct/image000001400/02_01_hyakkei.jpg","創設日":"","創設者":"","所在地（基本、名称と同じもの）":"原美術館","名称(中国語簡体字)":"","説明(中国語簡体字)":"","名称(中国語繁体字)":"","説明(中国語繁体字)":"","名称(韓国語)":"","説明(韓国語)":"","名称(ポルトガル語)":"","説明(ポルトガル語)":"","標準地域コード":"http://statdb.nstac.go.jp/lod/sac/C13109"},"geometry":{"type":"Point","coordinates":[139.735863,35.621822]}},{"type":"Feature","properties":{"name":"桜の名所の御殿山","enname":"","カテゴリ":"百景","カテゴリ補足":"花と緑","ジャンル":"観る","ジャンル_1":"","ジャンル_2":"","ジャンル_3":"","季節":"","場所":"","郵便番号":1410001,"都道府県名":"東京都","市区町村名":"品川区","行政区名":"","住所":"北品川1-21-8","住所(かな)":"","説明(日本語)":"江戸時代、桜の名所として名高かった御殿山。現在では御殿山通り沿いや御殿山トラストシティに多くの桜が植えられている。","説明(英語)":"","電話番号":"","FAX番号":"","営業時間":"","開所時刻":"","閉所時刻":"","定休日":"","利用料金":"","画像URL":"","創設日":"","創設者":"","所在地（基本、名称と同じもの）":"桜の名所の御殿山","名称(中国語簡体字)":"","説明(中国語簡体字)":"","名称(中国語繁体字)":"","説明(中国語繁体字)":"","名称(韓国語)":"","説明(韓国語)":"","名称(ポルトガル語)":"","説明(ポルトガル語)":"","標準地域コード":"http://statdb.nstac.go.jp/lod/sac/C13109"},"geometry":{"type":"Point","coordinates":[139.7410154,35.6224026]}},{"type":"Feature","properties":{"name":"東海寺大山墓地","enname":"","カテゴリ":"百景","カテゴリ補足":"歴史の足跡、鎮守と森と祭り","ジャンル":"観る","ジャンル_1":"","ジャンル_2":"","ジャンル_3":"","季節":"","場所":"","郵便番号":1410001,"都道府県名":"東京都","市区町村名":"品川区","行政区名":"","住所":"北品川4-11-8","住所(かな)":"","説明(日本語)":"京浜東北線、山手線、山手通りに囲まれる。国指定文化財（史跡）の沢庵和尚、賀茂真淵の墓や天文学者・渋川春海、鉄道の父・井上勝、実業家・西村勝三の墓などがある。 ","説明(英語)":"","電話番号":"","FAX番号":"","営業時間":"","開所時刻":"","閉所時刻":"","定休日":"","利用料金":"","画像URL":"","創設日":"","創設者":"","所在地（基本、名称と同じもの）":"東海寺大山墓地","名称(中国語簡体字)":"","説明(中国語簡体字)":"","名称(中国語繁体字)":"","説明(中国語繁体字)":"","名称(韓国語)":"","説明(韓国語)":"","名称(ポルトガル語)":"","説明(ポルトガル語)":"","標準地域コード":"http://statdb.nstac.go.jp/lod/sac/C13109"},"geometry":{"type":"Point","coordinates":[139.735716,35.617092]}},{"type":"Feature","properties":{"name":"清水稲荷神社","enname":"","カテゴリ":"百景","カテゴリ補足":"鎮守の森と祭り","ジャンル":"観る","ジャンル_1":"","ジャンル_2":"","ジャンル_3":"","季節":"","場所":"","郵便番号":1410001,"都道府県名":"東京都","市区町村名":"品川区","行政区名":"","住所":"北品川5-9-18","住所(かな)":"","説明(日本語)":"傍らに清水がわき出ていたことにその名を発する。朱塗りの鳥居と大イチョウ、そして背後に見える高層ビル、新旧の対照が印象的。 ","説明(英語)":"","電話番号":"","FAX番号":"","営業時間":"","開所時刻":"","閉所時刻":"","定休日":"","利用料金":"","画像URL":"","創設日":"","創設者":"","所在地（基本、名称と同じもの）":"清水稲荷神社","名称(中国語簡体字)":"","説明(中国語簡体字)":"","名称(中国語繁体字)":"","説明(中国語繁体字)":"","名称(韓国語)":"","説明(韓国語)":"","名称(ポルトガル語)":"","説明(ポルトガル語)":"","標準地域コード":"http://statdb.nstac.go.jp/lod/sac/C13109"},"geometry":{"type":"Point","coordinates":[139.7341105,35.619125]}},{"type":"Feature","properties":{"name":"利田神社と鯨塚","enname":"","カテゴリ":"百景","カテゴリ補足":"歴史の足跡、鎮守と森と祭り","ジャンル":"観る","ジャンル_1":"","ジャンル_2":"","ジャンル_3":"","季節":"","場所":"","郵便番号":1400002,"都道府県名":"東京都","市区町村名":"品川区","行政区名":"","住所":"東品川1-7-17","住所(かな)":"","説明(日本語)":"沢庵和尚が弁財天を祀(まつ)ったのが神社の始まりとの伝説がある。境内の鯨塚は、寛政10年（1798）に品川沖に迷い込んだ一頭の大鯨とその事件のてんまつを伝えている。 ","説明(英語)":"","電話番号":"","FAX番号":"","営業時間":"","開所時刻":"","閉所時刻":"","定休日":"","利用料金":"","画像URL":"","創設日":"","創設者":"","所在地（基本、名称と同じもの）":"利田神社と鯨塚","名称(中国語簡体字)":"","説明(中国語簡体字)":"","名称(中国語繁体字)":"","説明(中国語繁体字)":"","名称(韓国語)":"","説明(韓国語)":"","名称(ポルトガル語)":"","説明(ポルトガル語)":"","標準地域コード":"http://statdb.nstac.go.jp/lod/sac/C13109"},"geometry":{"type":"Point","coordinates":[139.7423875,35.6211]}},{"type":"Feature","properties":{"name":"寄木神社","enname":"","カテゴリ":"百景","カテゴリ補足":"鎮守の森と祭り","ジャンル":"観る","ジャンル_1":"","ジャンル_2":"","ジャンル_3":"","季節":"","場所":"","郵便番号":1400002,"都道府県名":"東京都","市区町村名":"品川区","行政区名":"","住所":"東品川1-35-8","住所(かな)":"","説明(日本語)":"猟師町の鎮守。本殿の2枚の扉に江戸後期から明治時代に活躍した左官の名工、伊豆長八作の漆喰鏝(こて)絵が描かれている。江戸漁業根元之碑には品川浦の歴史が刻まれている。","説明(英語)":"","電話番号":"","FAX番号":"","営業時間":"","開所時刻":"","閉所時刻":"","定休日":"","利用料金":"","画像URL":"","創設日":"","創設者":"","所在地（基本、名称と同じもの）":"寄木神社","名称(中国語簡体字)":"","説明(中国語簡体字)":"","名称(中国語繁体字)":"","説明(中国語繁体字)":"","名称(韓国語)":"","説明(韓国語)":"","名称(ポルトガル語)":"","説明(ポルトガル語)":"","標準地域コード":"http://statdb.nstac.go.jp/lod/sac/C13109"},"geometry":{"type":"Point","coordinates":[139.7458097,35.6180061]}},{"type":"Feature","properties":{"name":"天王洲公園野球場とナイター","enname":"","カテゴリ":"百景","カテゴリ補足":"文化といこい、古い顔・新しい顔","ジャンル":"観る","ジャンル_1":"","ジャンル_2":"","ジャンル_3":"","季節":"","場所":"","郵便番号":1400002,"都道府県名":"東京都","市区町村名":"品川区","行政区名":"","住所":"東品川2-6","住所(かな)":"","説明(日本語)":"品川の「草野球のメッカ」とも呼ばれる。昭和54年に照明灯を設置。その後、天王洲地区の再開発事業に伴い、平成6年に現在の地で全面開園した。","説明(英語)":"","電話番号":"","FAX番号":"","営業時間":"","開所時刻":"","閉所時刻":"","定休日":"","利用料金":"","画像URL":"","創設日":"","創設者":"","所在地（基本、名称と同じもの）":"天王洲公園野球場とナイター","名称(中国語簡体字)":"","説明(中国語簡体字)":"","名称(中国語繁体字)":"","説明(中国語繁体字)":"","名称(韓国語)":"","説明(韓国語)":"","名称(ポルトガル語)":"","説明(ポルトガル語)":"","標準地域コード":"http://statdb.nstac.go.jp/lod/sac/C13109"},"geometry":{"type":"Point","coordinates":[139.7493843,35.6192282]}},{"type":"Feature","properties":{"name":"元なぎさ通り沿いの大きな柱が印象的な建物","enname":"","カテゴリ":"百景","カテゴリ補足":"文化といこい、古い顔・新しい顔","ジャンル":"観る","ジャンル_1":"","ジャンル_2":"","ジャンル_3":"","季節":"","場所":"","郵便番号":1400002,"都道府県名":"東京都","市区町村名":"品川区","行政区名":"","住所":"東品川4-10-1 ","住所(かな)":"","説明(日本語)":"丸みのある大きな柱が印象的なスポーツ施設。アリーナ、プール、ランニングトラックをはじめ、テニスやゴルフの設備も整った都内でも最大級の施設。","説明(英語)":"","電話番号":"","FAX番号":"","営業時間":"","開所時刻":"","閉所時刻":"","定休日":"","利用料金":"","画像URL":"","創設日":"","創設者":"","所在地（基本、名称と同じもの）":"元なぎさ通り沿いの大きな柱が印象的な建物","名称(中国語簡体字)":"","説明(中国語簡体字)":"","名称(中国語繁体字)":"","説明(中国語繁体字)":"","名称(韓国語)":"","説明(韓国語)":"","名称(ポルトガル語)":"","説明(ポルトガル語)":"","標準地域コード":"http://statdb.nstac.go.jp/lod/sac/C13109"},"geometry":{"type":"Point","coordinates":[139.74576,35.607982]}},{"type":"Feature","properties":{"name":"妙蓮寺・高木正年の墓","enname":"","カテゴリ":"百景","カテゴリ補足":"歴史の足跡、鎮守の森と祭り","ジャンル":"観る","ジャンル_1":"","ジャンル_2":"","ジャンル_3":"","季節":"","場所":"","郵便番号":1400002,"都道府県名":"東京都","市区町村名":"品川区","行政区名":"","住所":"東品川4-10-1","住所(かな)":"","説明(日本語)":"失明しながらも明治から昭和時代にかけて国政に尽くした品川出身の政治家、高木正年の墓や、江戸時代、由井正雪の乱に加わった丸橋忠弥の首塚がある。 ","説明(英語)":"","電話番号":"","FAX番号":"","営業時間":"","開所時刻":"","閉所時刻":"","定休日":"","利用料金":"","画像URL":"","創設日":"","創設者":"","所在地（基本、名称と同じもの）":"妙蓮寺・高木正年の墓","名称(中国語簡体字)":"","説明(中国語簡体字)":"","名称(中国語繁体字)":"","説明(中国語繁体字)":"","名称(韓国語)":"","説明(韓国語)":"","名称(ポルトガル語)":"","説明(ポルトガル語)":"","標準地域コード":"http://statdb.nstac.go.jp/lod/sac/C13109"},"geometry":{"type":"Point","coordinates":[139.7457602,35.6079823]}},{"type":"Feature","properties":{"name":"天妙国寺の山門と無縁仏","enname":"","カテゴリ":"百景","カテゴリ補足":"歴史の足跡、鎮守の森と祭り","ジャンル":"観る","ジャンル_1":"","ジャンル_2":"","ジャンル_3":"","季節":"","場所":"","郵便番号":1400004,"都道府県名":"東京都","市区町村名":"品川区","行政区名":"","住所":"南品川2-8-23","住所(かな)":"","説明(日本語)":"一際目立つ朱塗りの山門。広々とした境内の正面には、18世紀中頃に再建された本堂。無縁仏を供養する無縁塔は本堂の北側にある。","説明(英語)":"","電話番号":"","FAX番号":"","営業時間":"","開所時刻":"","閉所時刻":"","定休日":"","利用料金":"","画像URL":"","創設日":"","創設者":"","所在地（基本、名称と同じもの）":"天妙国寺の山門と無縁仏","名称(中国語簡体字)":"","説明(中国語簡体字)":"","名称(中国語繁体字)":"","説明(中国語繁体字)":"","名称(韓国語)":"","説明(韓国語)":"","名称(ポルトガル語)":"","説明(ポルトガル語)":"","標準地域コード":"http://statdb.nstac.go.jp/lod/sac/C13109"},"geometry":{"type":"Point","coordinates":[139.7433768,35.6121706]}},{"type":"Feature","properties":{"name":"天妙国寺の墓地","enname":"","カテゴリ":"百景","カテゴリ補足":"歴史の足跡、鎮守の森と祭り","ジャンル":"観る","ジャンル_1":"","ジャンル_2":"","ジャンル_3":"","季節":"","場所":"","郵便番号":1400004,"都道府県名":"東京都","市区町村名":"品川区","行政区名":"","住所":"南品川2-8-23","住所(かな)":"","説明(日本語)":"明治時代の浪曲師、桃中軒雲右衛門(とうちゅうけんくもえもん)や一刀流の祖、伊藤一刀斎、歌舞伎で有名な斬られ与三郎のモデルとなった吉村伊三郎等の墓がある。 ","説明(英語)":"","電話番号":"","FAX番号":"","営業時間":"","開所時刻":"","閉所時刻":"","定休日":"","利用料金":"","画像URL":"","創設日":"","創設者":"","所在地（基本、名称と同じもの）":"天妙国寺の墓地","名称(中国語簡体字)":"","説明(中国語簡体字)":"","名称(中国語繁体字)":"","説明(中国語繁体字)":"","名称(韓国語)":"","説明(韓国語)":"","名称(ポルトガル語)":"","説明(ポルトガル語)":"","標準地域コード":"http://statdb.nstac.go.jp/lod/sac/C13109"},"geometry":{"type":"Point","coordinates":[139.7433768,35.6121706]}},{"type":"Feature","properties":{"name":"品川寺","enname":"","カテゴリ":"百景","カテゴリ補足":"鎮守の森と祭り","ジャンル":"観る","ジャンル_1":"","ジャンル_2":"","ジャンル_3":"","季節":"","場所":"","郵便番号":1400004,"都道府県名":"東京都","市区町村名":"品川区","行政区名":"","住所":"南品川3-5-17","住所(かな)":"","説明(日本語)":"平安時代に開創、品川で一番古い寺と伝えられている。江戸六地蔵、洋行帰りの鐘も百景に選定。山門すぐ右脇の大イチョウは推定樹齢600年で、区の天然記念物。","説明(英語)":"","電話番号":"","FAX番号":"","営業時間":"","開所時刻":"","閉所時刻":"","定休日":"","利用料金":"","画像URL":"","創設日":"","創設者":"","所在地（基本、名称と同じもの）":"品川寺","名称(中国語簡体字)":"","説明(中国語簡体字)":"","名称(中国語繁体字)":"","説明(中国語繁体字)":"","名称(韓国語)":"","説明(韓国語)":"","名称(ポルトガル語)":"","説明(ポルトガル語)":"","標準地域コード":"http://statdb.nstac.go.jp/lod/sac/C13109"},"geometry":{"type":"Point","coordinates":[139.7435325,35.6096764]}},{"type":"Feature","properties":{"name":"品川寺の江戸六地蔵","enname":"","カテゴリ":"百景","カテゴリ補足":"歴史の足跡、鎮守の森と祭り","ジャンル":"観る","ジャンル_1":"","ジャンル_2":"","ジャンル_3":"","季節":"","場所":"","郵便番号":1400004,"都道府県名":"東京都","市区町村名":"品川区","行政区名":"","住所":"南品川3-5-17","住所(かな)":"","説明(日本語)":"旧東海道を歩いていると突然現れ、その大きさに圧倒される銅造りの地蔵菩薩坐像。宝永5年（1708）造立の江戸六地蔵の一つであり、東京都文化財（彫刻）に指定されている。","説明(英語)":"","電話番号":"","FAX番号":"","営業時間":"","開所時刻":"","閉所時刻":"","定休日":"","利用料金":"","画像URL":"","創設日":"","創設者":"","所在地（基本、名称と同じもの）":"品川寺の江戸六地蔵","名称(中国語簡体字)":"","説明(中国語簡体字)":"","名称(中国語繁体字)":"","説明(中国語繁体字)":"","名称(韓国語)":"","説明(韓国語)":"","名称(ポルトガル語)":"","説明(ポルトガル語)":"","標準地域コード":"http://statdb.nstac.go.jp/lod/sac/C13109"},"geometry":{"type":"Point","coordinates":[139.7435325,35.6096764]}},{"type":"Feature","properties":{"name":"品川寺の梵鐘","enname":"","カテゴリ":"百景","カテゴリ補足":"歴史の足跡、鎮守の森と祭り","ジャンル":"観る","ジャンル_1":"","ジャンル_2":"","ジャンル_3":"","季節":"","場所":"","郵便番号":1400004,"都道府県名":"東京都","市区町村名":"品川区","行政区名":"","住所":"南品川3-5-17","住所(かな)":"","説明(日本語)":"慶応3年(1867)パリ万国博に出品の後行方不明になり、昭和5年スイスから返還された「洋行帰りの鐘」。この縁から、スイス・ジュネーヴ市は平成3年に友好都市提携を結んだ。 ","説明(英語)":"","電話番号":"","FAX番号":"","営業時間":"","開所時刻":"","閉所時刻":"","定休日":"","利用料金":"","画像URL":"http://www.city.shinagawa.tokyo.jp/ct/image000001400/03_01_hyakkei.jpg","創設日":"","創設者":"","所在地（基本、名称と同じもの）":"品川寺の梵鐘","名称(中国語簡体字)":"","説明(中国語簡体字)":"","名称(中国語繁体字)":"","説明(中国語繁体字)":"","名称(韓国語)":"","説明(韓国語)":"","名称(ポルトガル語)":"","説明(ポルトガル語)":"","標準地域コード":"http://statdb.nstac.go.jp/lod/sac/C13109"},"geometry":{"type":"Point","coordinates":[139.7435325,35.6096764]}},{"type":"Feature","properties":{"name":"海雲寺と千躰荒神","enname":"","カテゴリ":"百景","カテゴリ補足":"鎮守の森と祭り","ジャンル":"観る","ジャンル_1":"","ジャンル_2":"","ジャンル_3":"","季節":"","場所":"","郵便番号":1400004,"都道府県名":"東京都","市区町村名":"品川区","行政区名":"","住所":"南品川3-5-21","住所(かな)":"","説明(日本語)":"江戸時代から「品川の荒神さん」として広く親しまれ、台所の防火の神として厚い信仰を集めている。大祭は3月と11月の27、28日。","説明(英語)":"","電話番号":"","FAX番号":"","営業時間":"","開所時刻":"","閉所時刻":"","定休日":"","利用料金":"","画像URL":"http://www.city.shinagawa.tokyo.jp/ct/image000001400/03_02_hyakkei.jpg","創設日":"","創設者":"","所在地（基本、名称と同じもの）":"海雲寺と千躰荒神","名称(中国語簡体字)":"","説明(中国語簡体字)":"","名称(中国語繁体字)":"","説明(中国語繁体字)":"","名称(韓国語)":"","説明(韓国語)":"","名称(ポルトガル語)":"","説明(ポルトガル語)":"","標準地域コード":"http://statdb.nstac.go.jp/lod/sac/C13109"},"geometry":{"type":"Point","coordinates":[139.7439769,35.6090515]}},{"type":"Feature","properties":{"name":"清光院と奥平家墓地","enname":"","カテゴリ":"百景","カテゴリ補足":"歴史の足跡、鎮守の森と祭り","ジャンル":"観る","ジャンル_1":"","ジャンル_2":"","ジャンル_3":"","季節":"","場所":"","郵便番号":1400004,"都道府県名":"東京都","市区町村名":"品川区","行政区名":"","住所":"南品川4-2-35","住所(かな)":"","説明(日本語)":"約600㎡という都内でも有数の広さの奥平家の墓域。瓦を土でかためた土塀や入り口の石門には、江戸時代の姿がしのばれる。区指定史跡。","説明(英語)":"","電話番号":"","FAX番号":"","営業時間":"","開所時刻":"","閉所時刻":"","定休日":"","利用料金":"","画像URL":"","創設日":"","創設者":"","所在地（基本、名称と同じもの）":"清光院と奥平家墓地","名称(中国語簡体字)":"","説明(中国語簡体字)":"","名称(中国語繁体字)":"","説明(中国語繁体字)":"","名称(韓国語)":"","説明(韓国語)":"","名称(ポルトガル語)":"","説明(ポルトガル語)":"","標準地域コード":"http://statdb.nstac.go.jp/lod/sac/C13109"},"geometry":{"type":"Point","coordinates":[139.7387214,35.6153006]}},{"type":"Feature","properties":{"name":"エンジュの並木のゼームス坂通り","enname":"","カテゴリ":"百景","カテゴリ補足":"花と緑、古い顔・新しい顔","ジャンル":"観る","ジャンル_1":"","ジャンル_2":"","ジャンル_3":"","季節":"","場所":"","郵便番号":1400004,"都道府県名":"東京都","市区町村名":"品川区","行政区名":"","住所":"南品川6-6-7","住所(かな)":"","説明(日本語)":"明治時代、英国人ゼームスが私財を投じて穏やかな坂に改修したことから、この名が付けられた。エンジュは通りの両側に植えられ、花時の7月頃は、白並木が見られる。","説明(英語)":"","電話番号":"","FAX番号":"","営業時間":"","開所時刻":"","閉所時刻":"","定休日":"","利用料金":"","画像URL":"","創設日":"","創設者":"","所在地（基本、名称と同じもの）":"エンジュの並木のゼームス坂通り","名称(中国語簡体字)":"","説明(中国語簡体字)":"","名称(中国語繁体字)":"","説明(中国語繁体字)":"","名称(韓国語)":"","説明(韓国語)":"","名称(ポルトガル語)":"","説明(ポルトガル語)":"","標準地域コード":"http://statdb.nstac.go.jp/lod/sac/C13109"},"geometry":{"type":"Point","coordinates":[139.7399187,35.6117233]}},{"type":"Feature","properties":{"name":"二日市公園","enname":"","カテゴリ":"百景","カテゴリ補足":"文化といこい","ジャンル":"観る","ジャンル_1":"","ジャンル_2":"","ジャンル_3":"","季節":"","場所":"","郵便番号":1400004,"都道府県名":"東京都","市区町村名":"品川区","行政区名":"","住所":"南品川6-7-15","住所(かな)":"","説明(日本語)":"室町時代末期頃に、二と五の日に市が開かれていたことから二日五日市村となったことに由来する。オープンスペースを生かした開放的な公園。","説明(英語)":"","電話番号":"","FAX番号":"","営業時間":"","開所時刻":"","閉所時刻":"","定休日":"","利用料金":"","画像URL":"","創設日":"","創設者":"","所在地（基本、名称と同じもの）":"二日市公園","名称(中国語簡体字)":"","説明(中国語簡体字)":"","名称(中国語繁体字)":"","説明(中国語繁体字)":"","名称(韓国語)":"","説明(韓国語)":"","名称(ポルトガル語)":"","説明(ポルトガル語)":"","標準地域コード":"http://statdb.nstac.go.jp/lod/sac/C13109"},"geometry":{"type":"Point","coordinates":[139.7390672,35.6114412]}},{"type":"Feature","properties":{"name":"赤レンガ造りの旧変電所","enname":"","カテゴリ":"百景","カテゴリ補足":"古い顔・新しい顔","ジャンル":"観る","ジャンル_1":"","ジャンル_2":"","ジャンル_3":"","季節":"","場所":"","郵便番号":1400005,"都道府県名":"東京都","市区町村名":"品川区","行政区名":"","住所":"広町1-6","住所(かな)":"","説明(日本語)":"ＪＲ東日本東京総合車両センターの一角、京浜東北線線路の脇にある赤レンガが印象的な建物。大正年間に建造されたといわれる。","説明(英語)":"","電話番号":"","FAX番号":"","営業時間":"","開所時刻":"","閉所時刻":"","定休日":"","利用料金":"","画像URL":"","創設日":"","創設者":"","所在地（基本、名称と同じもの）":"赤レンガ造りの旧変電所","名称(中国語簡体字)":"","説明(中国語簡体字)":"","名称(中国語繁体字)":"","説明(中国語繁体字)":"","名称(韓国語)":"","説明(韓国語)":"","名称(ポルトガル語)":"","説明(ポルトガル語)":"","標準地域コード":"http://statdb.nstac.go.jp/lod/sac/C13109"},"geometry":{"type":"Point","coordinates":[139.7347885,35.6116259]}},{"type":"Feature","properties":{"name":"花房山の桜並木","enname":"","カテゴリ":"百景","カテゴリ補足":"花と緑","ジャンル":"観る","ジャンル_1":"","ジャンル_2":"","ジャンル_3":"","季節":"","場所":"","郵便番号":1410021,"都道府県名":"東京都","市区町村名":"品川区","行政区名":"","住所":"上大崎3-10-41","住所(かな)":"","説明(日本語)":"城南五山の一つと呼ばれた花房山の一角にある。付近は閑静な住宅街。桜の開花の頃は、付近を走るJR線の車窓からピンクに彩られた並木が目を引く。","説明(英語)":"","電話番号":"","FAX番号":"","営業時間":"","開所時刻":"","閉所時刻":"","定休日":"","利用料金":"","画像URL":"","創設日":"","創設者":"","所在地（基本、名称と同じもの）":"花房山の桜並木","名称(中国語簡体字)":"","説明(中国語簡体字)":"","名称(中国語繁体字)":"","説明(中国語繁体字)":"","名称(韓国語)":"","説明(韓国語)":"","名称(ポルトガル語)":"","説明(ポルトガル語)":"","標準地域コード":"http://statdb.nstac.go.jp/lod/sac/C13109"},"geometry":{"type":"Point","coordinates":[139.7171031,35.6310925]}},{"type":"Feature","properties":{"name":"清泉女子大学（旧島津公爵邸）","enname":"","カテゴリ":"百景","カテゴリ補足":"歴史の足跡、花と緑、文化といこい","ジャンル":"観る","ジャンル_1":"","ジャンル_2":"","ジャンル_3":"","季節":"","場所":"","郵便番号":1410022,"都道府県名":"東京都","市区町村名":"品川区","行政区名":"","住所":"東五反田3-16-21","住所(かな)":"","説明(日本語)":"大正4年竣工の旧島津公爵邸は、鹿鳴館やニコライ堂等を手がけたイギリス人コンドルによる設計で、大正初期の洋風建築物として貴重。現在は清泉女子大学の本館として使用。","説明(英語)":"","電話番号":"","FAX番号":"","営業時間":"","開所時刻":"","閉所時刻":"","定休日":"","利用料金":"","画像URL":"http://www.city.shinagawa.tokyo.jp/ct/image000001400/02_03_hyakkei.jpg","創設日":"","創設者":"","所在地（基本、名称と同じもの）":"清泉女子大学（旧島津公爵邸）","名称(中国語簡体字)":"","説明(中国語簡体字)":"","名称(中国語繁体字)":"","説明(中国語繁体字)":"","名称(韓国語)":"","説明(韓国語)":"","名称(ポルトガル語)":"","説明(ポルトガル語)":"","標準地域コード":"http://statdb.nstac.go.jp/lod/sac/C13109"},"geometry":{"type":"Point","coordinates":[139.7286883,35.6276822]}},{"type":"Feature","properties":{"name":"池田山公園","enname":"","カテゴリ":"百景","カテゴリ補足":"花と緑、文化といこい","ジャンル":"観る","ジャンル_1":"","ジャンル_2":"","ジャンル_3":"","季節":"","場所":"","郵便番号":1410022,"都道府県名":"東京都","市区町村名":"品川区","行政区名":"","住所":"東五反田5-4-35","住所(かな)":"","説明(日本語)":"旧岡山藩池田家の下屋敷の一部を含めて区立公園として整備。池田山の自然な高低差を巧みにとり入れた、回遊式の日本庭園。","説明(英語)":"","電話番号":"","FAX番号":"","営業時間":"","開所時刻":"","閉所時刻":"","定休日":"","利用料金":"","画像URL":"http://www.city.shinagawa.tokyo.jp/ct/image000001400/02_04_hyakkei.jpg","創設日":"","創設者":"","所在地（基本、名称と同じもの）":"池田山公園","名称(中国語簡体字)":"","説明(中国語簡体字)":"","名称(中国語繁体字)":"","説明(中国語繁体字)":"","名称(韓国語)":"","説明(韓国語)":"","名称(ポルトガル語)":"","説明(ポルトガル語)":"","標準地域コード":"http://statdb.nstac.go.jp/lod/sac/C13109"},"geometry":{"type":"Point","coordinates":[139.7234275,35.6325647]}},{"type":"Feature","properties":{"name":"五反田公園の桜並木","enname":"","カテゴリ":"百景","カテゴリ補足":"花と緑、文化といこい","ジャンル":"観る","ジャンル_1":"","ジャンル_2":"","ジャンル_3":"","季節":"","場所":"","郵便番号":1410022,"都道府県名":"東京都","市区町村名":"品川区","行政区名":"","住所":"東五反田5-25-1","住所(かな)":"","説明(日本語)":"駅のすぐ近くの高低差を生かした小さな公園。池田山の散策路の一つで、歩行者専用の石畳の坂道は桜並木となっている。","説明(英語)":"","電話番号":"","FAX番号":"","営業時間":"","開所時刻":"","閉所時刻":"","定休日":"","利用料金":"","画像URL":"","創設日":"","創設者":"","所在地（基本、名称と同じもの）":"五反田公園の桜並木","名称(中国語簡体字)":"","説明(中国語簡体字)":"","名称(中国語繁体字)":"","説明(中国語繁体字)":"","名称(韓国語)":"","説明(韓国語)":"","名称(ポルトガル語)":"","説明(ポルトガル語)":"","標準地域コード":"http://statdb.nstac.go.jp/lod/sac/C13109"},"geometry":{"type":"Point","coordinates":[139.7241554,35.6280236]}},{"type":"Feature","properties":{"name":"かむろ坂","enname":"","カテゴリ":"百景","カテゴリ補足":"花と緑","ジャンル":"観る","ジャンル_1":"","ジャンル_2":"","ジャンル_3":"","季節":"","場所":"","郵便番号":1410031,"都道府県名":"東京都","市区町村名":"品川区","行政区名":"","住所":"西五反田4-31-23","住所(かな)":"","説明(日本語)":"坂の名は、歌舞伎「浮世柄比翼稲妻」(うきよつかひよくのいなづま)にもなっている白井権八と相愛の小紫に仕えた侍女(かむろ)の悲話に由来する。春は桜並木が美しい。 ","説明(英語)":"","電話番号":"","FAX番号":"","営業時間":"","開所時刻":"","閉所時刻":"","定休日":"","利用料金":"","画像URL":"","創設日":"","創設者":"","所在地（基本、名称と同じもの）":"かむろ坂","名称(中国語簡体字)":"","説明(中国語簡体字)":"","名称(中国語繁体字)":"","説明(中国語繁体字)":"","名称(韓国語)":"","説明(韓国語)":"","名称(ポルトガル語)":"","説明(ポルトガル語)":"","標準地域コード":"http://statdb.nstac.go.jp/lod/sac/C13109"},"geometry":{"type":"Point","coordinates":[139.7137924,35.6270846]}},{"type":"Feature","properties":{"name":"氷川神社とわき水","enname":"","カテゴリ":"百景","カテゴリ補足":"鎮守の森と祭り","ジャンル":"観る","ジャンル_1":"","ジャンル_2":"","ジャンル_3":"","季節":"","場所":"","郵便番号":1410031,"都道府県名":"東京都","市区町村名":"品川区","行政区名":"","住所":"西五反田5-6-2","住所(かな)":"","説明(日本語)":"桐ヶ谷村の総鎮守。この辺りは武蔵野台地の末端にあたり、湧水が多くあった。一時枯渇した湧水も改修工事によって復活し、手水舎として使われている。 ","説明(英語)":"","電話番号":"","FAX番号":"","営業時間":"","開所時刻":"","閉所時刻":"","定休日":"","利用料金":"","画像URL":"","創設日":"","創設者":"","所在地（基本、名称と同じもの）":"氷川神社とわき水","名称(中国語簡体字)":"","説明(中国語簡体字)":"","名称(中国語繁体字)":"","説明(中国語繁体字)":"","名称(韓国語)":"","説明(韓国語)":"","名称(ポルトガル語)":"","説明(ポルトガル語)":"","標準地域コード":"http://statdb.nstac.go.jp/lod/sac/C13109"},"geometry":{"type":"Point","coordinates":[139.7158107,35.6246924]}},{"type":"Feature","properties":{"name":"大崎副都心の街並み","enname":"","カテゴリ":"百景","カテゴリ補足":"古い顔・新しい顔","ジャンル":"観る","ジャンル_1":"","ジャンル_2":"","ジャンル_3":"","季節":"","場所":"","郵便番号":1410032,"都道府県名":"東京都","市区町村名":"品川区","行政区名":"","住所":"大崎1-6-2","住所(かな)":"","説明(日本語)":"昭和57年、東京の副都心の一つに位置づけられた大崎駅周辺地区。大崎ニューシティ、ゲートシティ大崎と順次再開発が進み、東五反田地区、大崎駅西口地区へと副都心の街並みが続く。","説明(英語)":"","電話番号":"","FAX番号":"","営業時間":"","開所時刻":"","閉所時刻":"","定休日":"","利用料金":"","画像URL":"","創設日":"","創設者":"","所在地（基本、名称と同じもの）":"大崎副都心の街並み","名称(中国語簡体字)":"","説明(中国語簡体字)":"","名称(中国語繁体字)":"","説明(中国語繁体字)":"","名称(韓国語)":"","説明(韓国語)":"","名称(ポルトガル語)":"","説明(ポルトガル語)":"","標準地域コード":"http://statdb.nstac.go.jp/lod/sac/C13109"},"geometry":{"type":"Point","coordinates":[139.7291747,35.6209385]}},{"type":"Feature","properties":{"name":"居木神社と居木橋貝塚","enname":"","カテゴリ":"百景","カテゴリ補足":"歴史の足跡、鎮守の森と祭り","ジャンル":"観る","ジャンル_1":"","ジャンル_2":"","ジャンル_3":"","季節":"","場所":"","郵便番号":1410032,"都道府県名":"東京都","市区町村名":"品川区","行政区名":"","住所":"大崎3-8-20","住所(かな)":"","説明(日本語)":"大崎の鎮守。江戸時代初期に目黒川の水害を避けるためにこの地に移転。居木橋遺跡（貝塚）は、縄文時代前期の遺跡で、現在はその上に住宅が建っている。","説明(英語)":"","電話番号":"","FAX番号":"","営業時間":"","開所時刻":"","閉所時刻":"","定休日":"","利用料金":"","画像URL":"","創設日":"","創設者":"","所在地（基本、名称と同じもの）":"居木神社と居木橋貝塚","名称(中国語簡体字)":"","説明(中国語簡体字)":"","名称(中国語繁体字)":"","説明(中国語繁体字)":"","名称(韓国語)":"","説明(韓国語)":"","名称(ポルトガル語)":"","説明(ポルトガル語)":"","標準地域コード":"http://statdb.nstac.go.jp/lod/sac/C13109"},"geometry":{"type":"Point","coordinates":[139.7251111,35.6198608]}},{"type":"Feature","properties":{"name":"八幡神社","enname":"","カテゴリ":"百景","カテゴリ補足":"歴史の足跡、鎮守の森と祭り","ジャンル":"観る","ジャンル_1":"","ジャンル_2":"","ジャンル_3":"","季節":"","場所":"","郵便番号":1400011,"都道府県名":"東京都","市区町村名":"品川区","行政区名":"","住所":"東大井1-20-10","住所(かな)":"","説明(日本語)":"参道に「町内猟師中」と書かれた石造の狛犬や地元猟師が寄進した石灯籠などがあり、鮫洲の猟師町の鎮守として厚い信仰が寄せられていたことがうかがえる。","説明(英語)":"","電話番号":"","FAX番号":"","営業時間":"","開所時刻":"","閉所時刻":"","定休日":"","利用料金":"","画像URL":"http://www.city.shinagawa.tokyo.jp/ct/image000001400/03_03_hyakkei.jpg","創設日":"","創設者":"","所在地（基本、名称と同じもの）":"八幡神社","名称(中国語簡体字)":"","説明(中国語簡体字)":"","名称(中国語繁体字)":"","説明(中国語繁体字)":"","名称(韓国語)":"","説明(韓国語)":"","名称(ポルトガル語)":"","説明(ポルトガル語)":"","標準地域コード":"http://statdb.nstac.go.jp/lod/sac/C13109"},"geometry":{"type":"Point","coordinates":[139.7422995,35.6046687]}},{"type":"Feature","properties":{"name":"しながわ花海道と船だまり","enname":"","カテゴリ":"百景","カテゴリ補足":"古い顔・新しい顔","ジャンル":"観る","ジャンル_1":"","ジャンル_2":"","ジャンル_3":"","季節":"","場所":"","郵便番号":1400011,"都道府県名":"東京都","市区町村名":"品川区","行政区名":"","住所":"東大井2-26-18","住所(かな)":"","説明(日本語)":"平成14年に地元商店街が中心となって「勝島運河の土手をお花畑にしよう」と、しながわ花海道プロジェクトが始まった。運河の土手約2kmにわたり春は菜の花、秋はコスモスが訪れる人を楽しませる。","説明(英語)":"","電話番号":"","FAX番号":"","営業時間":"","開所時刻":"","閉所時刻":"","定休日":"","利用料金":"","画像URL":"","創設日":"","創設者":"","所在地（基本、名称と同じもの）":"しながわ花海道と船だまり","名称(中国語簡体字)":"","説明(中国語簡体字)":"","名称(中国語繁体字)":"","説明(中国語繁体字)":"","名称(韓国語)":"","説明(韓国語)":"","名称(ポルトガル語)":"","説明(ポルトガル語)":"","標準地域コード":"http://statdb.nstac.go.jp/lod/sac/C13109"},"geometry":{"type":"Point","coordinates":[139.7409233,35.5980076]}},{"type":"Feature","properties":{"name":"来福寺の境内","enname":"","カテゴリ":"百景","カテゴリ補足":"花と緑、鎮守の森と祭り","ジャンル":"観る","ジャンル_1":"","ジャンル_2":"","ジャンル_3":"","季節":"","場所":"","郵便番号":1400011,"都道府県名":"東京都","市区町村名":"品川区","行政区名":"","住所":"東大井3-13-1","住所(かな)":"","説明(日本語)":"正暦元年(990)開山の古寺。鮫洲を見下ろす高台にあり、庭園風に整備された境内が美しい。「世の中は三日見ぬ間に桜かな」。江戸時代中期の俳人、雪中庵寥太の句碑がある。","説明(英語)":"","電話番号":"","FAX番号":"","営業時間":"","開所時刻":"","閉所時刻":"","定休日":"","利用料金":"","画像URL":"","創設日":"","創設者":"","所在地（基本、名称と同じもの）":"来福寺の境内","名称(中国語簡体字)":"","説明(中国語簡体字)":"","名称(中国語繁体字)":"","説明(中国語繁体字)":"","名称(韓国語)":"","説明(韓国語)":"","名称(ポルトガル語)":"","説明(ポルトガル語)":"","標準地域コード":"http://statdb.nstac.go.jp/lod/sac/C13109"},"geometry":{"type":"Point","coordinates":[139.7376721,35.601805]}},{"type":"Feature","properties":{"name":"鈴ヶ森刑場跡と大経寺","enname":"","カテゴリ":"百景","カテゴリ補足":"歴史の足跡、鎮守の森と祭り","ジャンル":"観る","ジャンル_1":"","ジャンル_2":"","ジャンル_3":"","季節":"","場所":"","郵便番号":1400013,"都道府県名":"東京都","市区町村名":"品川区","行政区名":"","住所":"南大井2-5-6","住所(かな)":"","説明(日本語)":"鈴ヶ森は慶安4年(1651)に江戸幕府が設けた小塚原と並ぶ刑場。明治4年に廃止されるまで、天一坊、八百屋お七など、歌舞伎や講談に登場する人物もここで処刑されたという。 ","説明(英語)":"","電話番号":"","FAX番号":"","営業時間":"","開所時刻":"","閉所時刻":"","定休日":"","利用料金":"","画像URL":"","創設日":"","創設者":"","所在地（基本、名称と同じもの）":"鈴ヶ森刑場跡と大経寺","名称(中国語簡体字)":"","説明(中国語簡体字)":"","名称(中国語繁体字)":"","説明(中国語繁体字)":"","名称(韓国語)":"","説明(韓国語)":"","名称(ポルトガル語)":"","説明(ポルトガル語)":"","標準地域コード":"http://statdb.nstac.go.jp/lod/sac/C13109"},"geometry":{"type":"Point","coordinates":[139.7366505,35.5921478]}},{"type":"Feature","properties":{"name":"しながわ区民公園","enname":"","カテゴリ":"百景","カテゴリ補足":"花と緑、文化といこい","ジャンル":"観る","ジャンル_1":"","ジャンル_2":"","ジャンル_3":"","季節":"","場所":"","郵便番号":1400012,"都道府県名":"東京都","市区町村名":"品川区","行政区名":"","住所":"勝島3-2-2","住所(かな)":"","説明(日本語)":"「花とひろばと水と緑の公園」をテーマに勝島運河を埋め立てて造った、区立では都内有数の規模の公園。昭和62年に全面開園。園内にはしながわ水族館もある。","説明(英語)":"","電話番号":"","FAX番号":"","営業時間":"","開所時刻":"","閉所時刻":"","定休日":"","利用料金":"","画像URL":"","創設日":"","創設者":"","所在地（基本、名称と同じもの）":"しながわ区民公園","名称(中国語簡体字)":"","説明(中国語簡体字)":"","名称(中国語繁体字)":"","説明(中国語繁体字)":"","名称(韓国語)":"","説明(韓国語)":"","名称(ポルトガル語)":"","説明(ポルトガル語)":"","標準地域コード":"http://statdb.nstac.go.jp/lod/sac/C13109"},"geometry":{"type":"Point","coordinates":[139.7386532,35.5928005]}},{"type":"Feature","properties":{"name":"大井の水神社","enname":"","カテゴリ":"百景","カテゴリ補足":"鎮守の森と祭り","ジャンル":"観る","ジャンル_1":"","ジャンル_2":"","ジャンル_3":"","季節":"","場所":"","郵便番号":1400013,"都道府県名":"東京都","市区町村名":"品川区","行政区名":"","住所":"南大井5-14-9","住所(かな)":"","説明(日本語)":"江戸時代から「柳の清水」として知られ、水不足に悩んだ大井村の人々が雨乞いをする信仰行事が明治時代まで続いた。区指定史跡。 ","説明(英語)":"","電話番号":"","FAX番号":"","営業時間":"","開所時刻":"","閉所時刻":"","定休日":"","利用料金":"","画像URL":"","創設日":"","創設者":"","所在地（基本、名称と同じもの）":"大井の水神社","名称(中国語簡体字)":"","説明(中国語簡体字)":"","名称(中国語繁体字)":"","説明(中国語繁体字)":"","名称(韓国語)":"","説明(韓国語)":"","名称(ポルトガル語)":"","説明(ポルトガル語)":"","標準地域コード":"http://statdb.nstac.go.jp/lod/sac/C13109"},"geometry":{"type":"Point","coordinates":[139.7330283,35.5956667]}},{"type":"Feature","properties":{"name":"大井水神公園","enname":"","カテゴリ":"百景","カテゴリ補足":"文化といこい","ジャンル":"観る","ジャンル_1":"","ジャンル_2":"","ジャンル_3":"","季節":"","場所":"","郵便番号":1400013,"都道府県名":"東京都","市区町村名":"品川区","行政区名":"","住所":"南大井6-15-11","住所(かな)":"","説明(日本語)":"東海道線沿いに約800m続く細長い公園。園内には桜が多く植えられ、満開の桜の下で春を謳歌する人々でにぎわう。 ","説明(英語)":"","電話番号":"","FAX番号":"","営業時間":"","開所時刻":"","閉所時刻":"","定休日":"","利用料金":"","画像URL":"","創設日":"","創設者":"","所在地（基本、名称と同じもの）":"大井水神公園","名称(中国語簡体字)":"","説明(中国語簡体字)":"","名称(中国語繁体字)":"","説明(中国語繁体字)":"","名称(韓国語)":"","説明(韓国語)":"","名称(ポルトガル語)":"","説明(ポルトガル語)":"","標準地域コード":"http://statdb.nstac.go.jp/lod/sac/C13109"},"geometry":{"type":"Point","coordinates":[139.7292483,35.5897562]}},{"type":"Feature","properties":{"name":"大井競馬場とトゥインクルレース","enname":"","カテゴリ":"百景","カテゴリ補足":"古い顔・新しい顔","ジャンル":"観る","ジャンル_1":"","ジャンル_2":"","ジャンル_3":"","季節":"","場所":"","郵便番号":1400012,"都道府県名":"東京都","市区町村名":"品川区","行政区名":"","住所":"勝島2-1","住所(かな)":"","説明(日本語)":"春から秋に行われるトゥインクルレースは、日本初のナイター競馬。美しいカクテル光線と疾走する馬、ファンファーレとひづめの音、夕涼みには絶好の場所として人気が高い。","説明(英語)":"","電話番号":"","FAX番号":"","営業時間":"","開所時刻":"","閉所時刻":"","定休日":"","利用料金":"","画像URL":"","創設日":"","創設者":"","所在地（基本、名称と同じもの）":"大井競馬場とトゥインクルレース","名称(中国語簡体字)":"","説明(中国語簡体字)":"","名称(中国語繁体字)":"","説明(中国語繁体字)":"","名称(韓国語)":"","説明(韓国語)":"","名称(ポルトガル語)":"","説明(ポルトガル語)":"","標準地域コード":"http://statdb.nstac.go.jp/lod/sac/C13109"},"geometry":{"type":"Point","coordinates":[139.7421836,35.5908759]}},{"type":"Feature","properties":{"name":"大井競馬場前駅と運河、モノレール","enname":"","カテゴリ":"百景","カテゴリ補足":"古い顔・新しい顔","ジャンル":"観る","ジャンル_1":"","ジャンル_2":"","ジャンル_3":"","季節":"","場所":"","郵便番号":1400012,"都道府県名":"東京都","市区町村名":"品川区","行政区名":"","住所":"勝島1-5-21","住所(かな)":"","説明(日本語)":"すっきりとしたラインを描いて運河の上を走るモノレールは、東京五輪の年（昭和39年）、浜松町〜羽田間に開通した。京浜運河の上に造られたチロル風の駅舎は磯の香りが漂う。 ","説明(英語)":"","電話番号":"","FAX番号":"","営業時間":"","開所時刻":"","閉所時刻":"","定休日":"","利用料金":"","画像URL":"","創設日":"","創設者":"","所在地（基本、名称と同じもの）":"大井競馬場前駅と運河、モノレール","名称(中国語簡体字)":"","説明(中国語簡体字)":"","名称(中国語繁体字)":"","説明(中国語繁体字)":"","名称(韓国語)":"","説明(韓国語)":"","名称(ポルトガル語)":"","説明(ポルトガル語)":"","標準地域コード":"http://statdb.nstac.go.jp/lod/sac/C13109"},"geometry":{"type":"Point","coordinates":[139.7460275,35.5965364]}},{"type":"Feature","properties":{"name":"「平和の誓い」像","enname":"","カテゴリ":"百景","カテゴリ補足":"古い顔・新しい顔","ジャンル":"観る","ジャンル_1":"","ジャンル_2":"","ジャンル_3":"","季節":"","場所":"","郵便番号":1400014,"都道府県名":"東京都","市区町村名":"品川区","行政区名":"","住所":"大井1-2-1","住所(かな)":"","説明(日本語)":"非核平和都市品川宣言1周年を記念して昭和60年に建立されたブロンズ像。広島の「平和の灯」と長崎の「誓いの火」を合わせて点火した「誓いの灯」とともに、品川区の平和のシンボル。","説明(英語)":"","電話番号":"","FAX番号":"","営業時間":"","開所時刻":"","閉所時刻":"","定休日":"","利用料金":"","画像URL":"","創設日":"","創設者":"","所在地（基本、名称と同じもの）":"「平和の誓い」像","名称(中国語簡体字)":"","説明(中国語簡体字)":"","名称(中国語繁体字)":"","説明(中国語繁体字)":"","名称(韓国語)":"","説明(韓国語)":"","名称(ポルトガル語)":"","説明(ポルトガル語)":"","標準地域コード":"http://statdb.nstac.go.jp/lod/sac/C13109"},"geometry":{"type":"Point","coordinates":[139.7348915,35.6061821]}},{"type":"Feature","properties":{"name":"大井どんたく夏祭り<8月>","enname":"","カテゴリ":"百景","カテゴリ補足":"鎮守の森と祭り","ジャンル":"観る","ジャンル_1":"","ジャンル_2":"","ジャンル_3":"","季節":"","場所":"","郵便番号":1400014,"都道府県名":"東京都","市区町村名":"品川区","行政区名":"","住所":"大井1-50","住所(かな)":"","説明(日本語)":"昭和28年に大井町に出店した百貨店が地域活性化のために始めた。今は地元商店街を中心とする実行委員会が8月下旬に開催。盆踊りの他、様々な催し物が繰り広げられる。","説明(英語)":"","電話番号":"","FAX番号":"","営業時間":"","開所時刻":"","閉所時刻":"","定休日":"","利用料金":"","画像URL":"","創設日":"","創設者":"","所在地（基本、名称と同じもの）":"大井どんたく夏祭り<8月>","名称(中国語簡体字)":"","説明(中国語簡体字)":"","名称(中国語繁体字)":"","説明(中国語繁体字)":"","名称(韓国語)":"","説明(韓国語)":"","名称(ポルトガル語)":"","説明(ポルトガル語)":"","標準地域コード":"http://statdb.nstac.go.jp/lod/sac/C13109"},"geometry":{"type":"Point","coordinates":[139.7326916,35.6066015]}},{"type":"Feature","properties":{"name":"品川歴史館","enname":"","カテゴリ":"百景","カテゴリ補足":"歴史の足跡、文化といこい","ジャンル":"観る","ジャンル_1":"","ジャンル_2":"","ジャンル_3":"","季節":"","場所":"","郵便番号":1400014,"都道府県名":"東京都","市区町村名":"品川区","行政区名":"","住所":"大井6-11-1","住所(かな)":"","説明(日本語)":"郷土資料の保存と区民文化の向上を目的に、昭和60年開館。常設展示では東海道第一の宿場として栄えた品川宿の町並みを模型で再現している。","説明(英語)":"","電話番号":"","FAX番号":"","営業時間":"","開所時刻":"","閉所時刻":"","定休日":"","利用料金":"","画像URL":"","創設日":"","創設者":"","所在地（基本、名称と同じもの）":"品川歴史館","名称(中国語簡体字)":"","説明(中国語簡体字)":"","名称(中国語繁体字)":"","説明(中国語繁体字)":"","名称(韓国語)":"","説明(韓国語)":"","名称(ポルトガル語)":"","説明(ポルトガル語)":"","標準地域コード":"http://statdb.nstac.go.jp/lod/sac/C13109"},"geometry":{"type":"Point","coordinates":[139.7301566,35.5967333]}},{"type":"Feature","properties":{"name":"鹿嶋神社","enname":"","カテゴリ":"百景","カテゴリ補足":"鎮守の森と祭り","ジャンル":"観る","ジャンル_1":"","ジャンル_2":"","ジャンル_3":"","季節":"","場所":"","郵便番号":1400014,"都道府県名":"東京都","市区町村名":"品川区","行政区名":"","住所":"大井6-18-36","住所(かな)":"","説明(日本語)":"大井村の総鎮守として安和2年（969）に常陸国の鹿嶋神社を勧請して創建された。境内のタブノキやアカガシは区の天然記念物。","説明(英語)":"","電話番号":"","FAX番号":"","営業時間":"","開所時刻":"","閉所時刻":"","定休日":"","利用料金":"","画像URL":"","創設日":"","創設者":"","所在地（基本、名称と同じもの）":"鹿嶋神社","名称(中国語簡体字)":"","説明(中国語簡体字)":"","名称(中国語繁体字)":"","説明(中国語繁体字)":"","名称(韓国語)":"","説明(韓国語)":"","名称(ポルトガル語)":"","説明(ポルトガル語)":"","標準地域コード":"http://statdb.nstac.go.jp/lod/sac/C13109"},"geometry":{"type":"Point","coordinates":[139.7300952,35.59535]}},{"type":"Feature","properties":{"name":"大森貝塚","enname":"","カテゴリ":"百景","カテゴリ補足":"歴史の足跡、文化といこい","ジャンル":"観る","ジャンル_1":"","ジャンル_2":"","ジャンル_3":"","季節":"","場所":"","郵便番号":1400014,"都道府県名":"東京都","市区町村名":"品川区","行政区名":"","住所":"大井6-21","住所(かな)":"","説明(日本語)":"明治10年、エドワード・S・モース博士により発掘。現在は日本考古学発祥の地を記念する「大森貝塚遺跡庭園」として整備されている。国指定史跡。","説明(英語)":"","電話番号":"","FAX番号":"","営業時間":"","開所時刻":"","閉所時刻":"","定休日":"","利用料金":"","画像URL":"http://www.city.shinagawa.tokyo.jp/ct/image000001400/04_01_hyakkei.jpg","創設日":"","創設者":"","所在地（基本、名称と同じもの）":"大森貝塚","名称(中国語簡体字)":"","説明(中国語簡体字)":"","名称(中国語繁体字)":"","説明(中国語繁体字)":"","名称(韓国語)":"","説明(韓国語)":"","名称(ポルトガル語)":"","説明(ポルトガル語)":"","標準地域コード":"http://statdb.nstac.go.jp/lod/sac/C13109"},"geometry":{"type":"Point","coordinates":[139.7296897,35.5937946]}},{"type":"Feature","properties":{"name":"西大井駅とその周辺","enname":"","カテゴリ":"百景","カテゴリ補足":"古い顔・新しい顔","ジャンル":"観る","ジャンル_1":"","ジャンル_2":"","ジャンル_3":"","季節":"","場所":"","郵便番号":1400015,"都道府県名":"東京都","市区町村名":"品川区","行政区名":"","住所":"西大井1-3","住所(かな)":"","説明(日本語)":"昭和61年開業。再開発によって、コアスターレ西大井、ジェイタワー西大井が誕生した。駅前広場には「平和の誓い」像が設置され周囲にはカンナが植えられている。","説明(英語)":"","電話番号":"","FAX番号":"","営業時間":"","開所時刻":"","閉所時刻":"","定休日":"","利用料金":"","画像URL":"","創設日":"","創設者":"","所在地（基本、名称と同じもの）":"西大井駅とその周辺","名称(中国語簡体字)":"","説明(中国語簡体字)":"","名称(中国語繁体字)":"","説明(中国語繁体字)":"","名称(韓国語)":"","説明(韓国語)":"","名称(ポルトガル語)":"","説明(ポルトガル語)":"","標準地域コード":"http://statdb.nstac.go.jp/lod/sac/C13109"},"geometry":{"type":"Point","coordinates":[139.7219703,35.6016406]}},{"type":"Feature","properties":{"name":"養玉院（如来寺）","enname":"","カテゴリ":"百景","カテゴリ補足":"歴史の足跡、鎮守の森と祭り","ジャンル":"観る","ジャンル_1":"","ジャンル_2":"","ジャンル_3":"","季節":"","場所":"","郵便番号":1400015,"都道府県名":"東京都","市区町村名":"品川区","行政区名":"","住所":"西大井5-22-25","住所(かな)":"","説明(日本語)":"明治41年に現在の地に移転。「大井の大仏」として親しまれ、瑞應殿に安置されている「大仏」と呼ばれる五智如来坐像をはじめとして、文化財が多くある。","説明(英語)":"","電話番号":"","FAX番号":"","営業時間":"","開所時刻":"","閉所時刻":"","定休日":"","利用料金":"","画像URL":"http://www.city.shinagawa.tokyo.jp/ct/image000001400/04_02_hyakkei.jpg","創設日":"","創設者":"","所在地（基本、名称と同じもの）":"養玉院（如来寺）","名称(中国語簡体字)":"","説明(中国語簡体字)":"","名称(中国語繁体字)":"","説明(中国語繁体字)":"","名称(韓国語)":"","説明(韓国語)":"","名称(ポルトガル語)":"","説明(ポルトガル語)":"","標準地域コード":"http://statdb.nstac.go.jp/lod/sac/C13109"},"geometry":{"type":"Point","coordinates":[139.7174766,35.5968439]}},{"type":"Feature","properties":{"name":"大仏の千灯供養","enname":"","カテゴリ":"百景","カテゴリ補足":"歴史の足跡","ジャンル":"観る","ジャンル_1":"","ジャンル_2":"","ジャンル_3":"","季節":"","場所":"","郵便番号":1400015,"都道府県名":"東京都","市区町村名":"品川区","行政区名":"","住所":"西大井5-22-25","住所(かな)":"","説明(日本語)":"「大井の大仏」養玉院で8月13日迎え盆に行われる「千燈供養会法要」。五智如来坐像前の灯から採火した千灯の提灯は、境内を幽玄の世界へと誘う。","説明(英語)":"","電話番号":"","FAX番号":"","営業時間":"","開所時刻":"","閉所時刻":"","定休日":"","利用料金":"","画像URL":"","創設日":"","創設者":"","所在地（基本、名称と同じもの）":"大仏の千灯供養","名称(中国語簡体字)":"","説明(中国語簡体字)":"","名称(中国語繁体字)":"","説明(中国語繁体字)":"","名称(韓国語)":"","説明(韓国語)":"","名称(ポルトガル語)":"","説明(ポルトガル語)":"","標準地域コード":"http://statdb.nstac.go.jp/lod/sac/C13109"},"geometry":{"type":"Point","coordinates":[139.7174766,35.5968439]}},{"type":"Feature","properties":{"name":"伊藤博文公墓所","enname":"","カテゴリ":"百景","カテゴリ補足":"歴史の足跡、鎮守の森と祭り","ジャンル":"観る","ジャンル_1":"","ジャンル_2":"","ジャンル_3":"","季節":"","場所":"","郵便番号":1400015,"都道府県名":"東京都","市区町村名":"品川区","行政区名":"","住所":"西大井6-10-18","住所(かな)":"","説明(日本語)":"初代内閣総理大臣として明治時代に活躍した伊藤博文。別邸が近くにあったことから、国葬ののちここに葬られた。区指定史跡。","説明(英語)":"","電話番号":"","FAX番号":"","営業時間":"","開所時刻":"","閉所時刻":"","定休日":"","利用料金":"","画像URL":"","創設日":"","創設者":"","所在地（基本、名称と同じもの）":"伊藤博文公墓所","名称(中国語簡体字)":"","説明(中国語簡体字)":"","名称(中国語繁体字)":"","説明(中国語繁体字)":"","名称(韓国語)":"","説明(韓国語)":"","名称(ポルトガル語)":"","説明(ポルトガル語)":"","標準地域コード":"http://statdb.nstac.go.jp/lod/sac/C13109"},"geometry":{"type":"Point","coordinates":[139.7200678,35.6003213]}},{"type":"Feature","properties":{"name":"JR東日本東京総合車両センター","enname":"","カテゴリ":"百景","カテゴリ補足":"古い顔・新しい顔","ジャンル":"観る","ジャンル_1":"","ジャンル_2":"","ジャンル_3":"","季節":"","場所":"","郵便番号":1400005,"都道府県名":"東京都","市区町村名":"品川区","行政区名":"","住所":"広町2","住所(かな)":"","説明(日本語)":"大正4年創立の鉄道省大井工場以来の歴史を持つ。平成16年、車両基地の山手電車区と車両工場の大井工場が統合されて東京総合車両センターとなった。","説明(英語)":"","電話番号":"","FAX番号":"","営業時間":"","開所時刻":"","閉所時刻":"","定休日":"","利用料金":"","画像URL":"","創設日":"","創設者":"","所在地（基本、名称と同じもの）":"JR東日本東京総合車両センター","名称(中国語簡体字)":"","説明(中国語簡体字)":"","名称(中国語繁体字)":"","説明(中国語繁体字)":"","名称(韓国語)":"","説明(韓国語)":"","名称(ポルトガル語)":"","説明(ポルトガル語)":"","標準地域コード":"http://statdb.nstac.go.jp/lod/sac/C13109"},"geometry":{"type":"Point","coordinates":[139.7310639,35.6089845]}},{"type":"Feature","properties":{"name":"林試の森","enname":"","カテゴリ":"百景","カテゴリ補足":"花と緑","ジャンル":"観る","ジャンル_1":"","ジャンル_2":"","ジャンル_3":"","季節":"","場所":"","郵便番号":1420061,"都道府県名":"東京都","市区町村名":"品川区","行政区名":"","住所":"小山台2-6","住所(かな)":"","説明(日本語)":"林業試験場跡地を活用した品川・目黒両区にまたがる広さ12haの都立公園で、自然の宝庫となっている。うっそうとした樹林に覆われ、森林浴に最適。","説明(英語)":"","電話番号":"","FAX番号":"","営業時間":"","開所時刻":"","閉所時刻":"","定休日":"","利用料金":"","画像URL":"","創設日":"","創設者":"","所在地（基本、名称と同じもの）":"林試の森","名称(中国語簡体字)":"","説明(中国語簡体字)":"","名称(中国語繁体字)":"","説明(中国語繁体字)":"","名称(韓国語)":"","説明(韓国語)":"","名称(ポルトガル語)":"","説明(ポルトガル語)":"","標準地域コード":"http://statdb.nstac.go.jp/lod/sac/C13109"},"geometry":{"type":"Point","coordinates":[139.7011825,35.6251816]}},{"type":"Feature","properties":{"name":"武蔵小山商店街のにぎわい","enname":"","カテゴリ":"百景","カテゴリ補足":"古い顔・新しい顔","ジャンル":"観る","ジャンル_1":"","ジャンル_2":"","ジャンル_3":"","季節":"","場所":"","郵便番号":1420062,"都道府県名":"東京都","市区町村名":"品川区","行政区名":"","住所":"小山3","住所(かな)":"","説明(日本語)":"延長800ｍのアーケードが特徴的な商店街は250の店舗があり、パルムという愛称で親しまれている。昭和31年、最初のアーケードが完成した当時は東洋一と称えられた。","説明(英語)":"","電話番号":"","FAX番号":"","営業時間":"","開所時刻":"","閉所時刻":"","定休日":"","利用料金":"","画像URL":"","創設日":"","創設者":"","所在地（基本、名称と同じもの）":"武蔵小山商店街のにぎわい","名称(中国語簡体字)":"","説明(中国語簡体字)":"","名称(中国語繁体字)":"","説明(中国語繁体字)":"","名称(韓国語)":"","説明(韓国語)":"","名称(ポルトガル語)":"","説明(ポルトガル語)":"","標準地域コード":"http://statdb.nstac.go.jp/lod/sac/C13109"},"geometry":{"type":"Point","coordinates":[139.7053184,35.6198463]}},{"type":"Feature","properties":{"name":"小山両社祭の神輿連合渡御<9月>","enname":"","カテゴリ":"百景","カテゴリ補足":"鎮守の森と祭り","ジャンル":"観る","ジャンル_1":"","ジャンル_2":"","ジャンル_3":"","季節":"","場所":"","郵便番号":1420062,"都道府県名":"東京都","市区町村名":"品川区","行政区名":"","住所":"小山6-7","住所(かな)":"","説明(日本語)":"毎年9月6、7日に近い土・日曜日に開催される小山・三谷両八幡神社の例大祭。氏子町会神輿7基が、日没を待って隊列を組み、各町内を練り歩く。","説明(英語)":"","電話番号":"","FAX番号":"","営業時間":"","開所時刻":"","閉所時刻":"","定休日":"","利用料金":"","画像URL":"","創設日":"","創設者":"","所在地（基本、名称と同じもの）":"小山両社祭の神輿連合渡御<9月>","名称(中国語簡体字)":"","説明(中国語簡体字)":"","名称(中国語繁体字)":"","説明(中国語繁体字)":"","名称(韓国語)":"","説明(韓国語)":"","名称(ポルトガル語)":"","説明(ポルトガル語)":"","標準地域コード":"http://statdb.nstac.go.jp/lod/sac/C13109"},"geometry":{"type":"Point","coordinates":[139.6997218,35.6146523]}},{"type":"Feature","properties":{"name":"星薬科大学","enname":"","カテゴリ":"百景","カテゴリ補足":"花と緑、文化といこい","ジャンル":"観る","ジャンル_1":"","ジャンル_2":"","ジャンル_3":"","季節":"","場所":"","郵便番号":1420063,"都道府県名":"東京都","市区町村名":"品川区","行政区名":"","住所":"荏原2-2-9","住所(かな)":"","説明(日本語)":"明治・大正時代、製薬業で活躍した星一（ほしはじめ）が設立した星薬学専門学校を前身、昭和25年に開校。正門から正面の大講堂へ続くイチョウ並木は、新緑・黄葉時が一際美しい。","説明(英語)":"","電話番号":"","FAX番号":"","営業時間":"","開所時刻":"","閉所時刻":"","定休日":"","利用料金":"","画像URL":"","創設日":"","創設者":"","所在地（基本、名称と同じもの）":"星薬科大学","名称(中国語簡体字)":"","説明(中国語簡体字)":"","名称(中国語繁体字)":"","説明(中国語繁体字)":"","名称(韓国語)":"","説明(韓国語)":"","名称(ポルトガル語)":"","説明(ポルトガル語)":"","標準地域コード":"http://statdb.nstac.go.jp/lod/sac/C13109"},"geometry":{"type":"Point","coordinates":[139.7131122,35.6176718]}},{"type":"Feature","properties":{"name":"西小山桜並木通り","enname":"","カテゴリ":"百景","カテゴリ補足":"花と緑","ジャンル":"観る","ジャンル_1":"","ジャンル_2":"","ジャンル_3":"","季節":"","場所":"","郵便番号":1420062,"都道府県名":"東京都","市区町村名":"品川区","行政区名":"","住所":"小山5-7-1","住所(かな)":"","説明(日本語)":"中原街道から西小山駅まで約１km続く立会道路は「西小山桜並木通り」と呼ばれ、桜の名所となっている。総本数は約160本。開花時期にはピンクのトンネルのようになる。","説明(英語)":"","電話番号":"","FAX番号":"","営業時間":"","開所時刻":"","閉所時刻":"","定休日":"","利用料金":"","画像URL":"","創設日":"","創設者":"","所在地（基本、名称と同じもの）":"西小山桜並木通り","名称(中国語簡体字)":"","説明(中国語簡体字)":"","名称(中国語繁体字)":"","説明(中国語繁体字)":"","名称(韓国語)":"","説明(韓国語)":"","名称(ポルトガル語)":"","説明(ポルトガル語)":"","標準地域コード":"http://statdb.nstac.go.jp/lod/sac/C13109"},"geometry":{"type":"Point","coordinates":[139.700451,35.614258]}},{"type":"Feature","properties":{"name":"小山八幡神社","enname":"","カテゴリ":"百景","カテゴリ補足":"鎮守の森と祭り","ジャンル":"観る","ジャンル_1":"","ジャンル_2":"","ジャンル_3":"","季節":"","場所":"","郵便番号":1420063,"都道府県名":"東京都","市区町村名":"品川区","行政区名":"","住所":"荏原7-5-14","住所(かな)":"","説明(日本語)":"旧小山村の鎮守。社殿は小高い丘の上にあり、「小山」の地名はこの台地から名付けられたという。境内からの眺望が良く、付近には江戸見坂もある。","説明(英語)":"","電話番号":"","FAX番号":"","営業時間":"","開所時刻":"","閉所時刻":"","定休日":"","利用料金":"","画像URL":"","創設日":"","創設者":"","所在地（基本、名称と同じもの）":"小山八幡神社","名称(中国語簡体字)":"","説明(中国語簡体字)":"","名称(中国語繁体字)":"","説明(中国語繁体字)":"","名称(韓国語)":"","説明(韓国語)":"","名称(ポルトガル語)":"","説明(ポルトガル語)":"","標準地域コード":"http://statdb.nstac.go.jp/lod/sac/C13109"},"geometry":{"type":"Point","coordinates":[139.6996331,35.6116888]}},{"type":"Feature","properties":{"name":"戸越銀座商店街のにぎわい","enname":"","カテゴリ":"百景","カテゴリ補足":"古い顔・新しい顔","ジャンル":"観る","ジャンル_1":"","ジャンル_2":"","ジャンル_3":"","季節":"","場所":"","郵便番号":1420051,"都道府県名":"東京都","市区町村名":"品川区","行政区名":"","住所":"平塚1","住所(かな)":"","説明(日本語)":"東西約1.3kmで、関東でも有数の長さを誇り、約400軒の商店が軒を連ねる。関東大震災後、銀座の煉瓦を譲り受け再利用したことから「○○銀座」と名付けられた日本で最初の商店街。","説明(英語)":"","電話番号":"","FAX番号":"","営業時間":"","開所時刻":"","閉所時刻":"","定休日":"","利用料金":"","画像URL":"","創設日":"","創設者":"","所在地（基本、名称と同じもの）":"戸越銀座商店街のにぎわい","名称(中国語簡体字)":"","説明(中国語簡体字)":"","名称(中国語繁体字)":"","説明(中国語繁体字)":"","名称(韓国語)":"","説明(韓国語)":"","名称(ポルトガル語)":"","説明(ポルトガル語)":"","標準地域コード":"http://statdb.nstac.go.jp/lod/sac/C13109"},"geometry":{"type":"Point","coordinates":[139.7149288,35.6141361]}},{"type":"Feature","properties":{"name":"旗岡八幡神社と鎌倉道","enname":"","カテゴリ":"百景","カテゴリ補足":"歴史の足跡、鎮守の森と祭り","ジャンル":"観る","ジャンル_1":"","ジャンル_2":"","ジャンル_3":"","季節":"","場所":"","郵便番号":1420064,"都道府県名":"東京都","市区町村名":"品川区","行政区名":"","住所":"旗の台3-6-12","住所(かな)":"","説明(日本語)":"鎌倉時代に源氏の血を引く武士が創建したとされている。江戸時代には多くの武家から尊崇された。神社周辺には「鎌倉道」「源氏前」等、源氏にちなむ地名が残っている。","説明(英語)":"","電話番号":"","FAX番号":"","営業時間":"","開所時刻":"","閉所時刻":"","定休日":"","利用料金":"","画像URL":"http://www.city.shinagawa.tokyo.jp/ct/image000001400/04_03_hyakkei.jpg","創設日":"","創設者":"","所在地（基本、名称と同じもの）":"旗岡八幡神社と鎌倉道","名称(中国語簡体字)":"","説明(中国語簡体字)":"","名称(中国語繁体字)":"","説明(中国語繁体字)":"","名称(韓国語)":"","説明(韓国語)":"","名称(ポルトガル語)":"","説明(ポルトガル語)":"","標準地域コード":"http://statdb.nstac.go.jp/lod/sac/C13109"},"geometry":{"type":"Point","coordinates":[139.7078298,35.6046398]}},{"type":"Feature","properties":{"name":"法蓮寺","enname":"","カテゴリ":"百景","カテゴリ補足":"鎮守の森と祭り","ジャンル":"観る","ジャンル_1":"","ジャンル_2":"","ジャンル_3":"","季節":"","場所":"","郵便番号":1420064,"都道府県名":"東京都","市区町村名":"品川区","行政区名":"","住所":"旗の台3-6-18","住所(かな)":"","説明(日本語)":"鎌倉時代中期の創建と伝えられている。旗岡八幡神社とともに源氏ゆかりの寺として崇められ、毎年10月16日に行われるお会式では、万灯が境内を埋め、たいへんにぎわう。 ","説明(英語)":"","電話番号":"","FAX番号":"","営業時間":"","開所時刻":"","閉所時刻":"","定休日":"","利用料金":"","画像URL":"","創設日":"","創設者":"","所在地（基本、名称と同じもの）":"法蓮寺","名称(中国語簡体字)":"","説明(中国語簡体字)":"","名称(中国語繁体字)":"","説明(中国語繁体字)":"","名称(韓国語)":"","説明(韓国語)":"","名称(ポルトガル語)":"","説明(ポルトガル語)":"","標準地域コード":"http://statdb.nstac.go.jp/lod/sac/C13109"},"geometry":{"type":"Point","coordinates":[139.7081603,35.6042732]}},{"type":"Feature","properties":{"name":"旗の台伏見稲荷神社","enname":"","カテゴリ":"百景","カテゴリ補足":"鎮守の森と祭り","ジャンル":"観る","ジャンル_1":"","ジャンル_2":"","ジャンル_3":"","季節":"","場所":"","郵便番号":1420064,"都道府県名":"東京都","市区町村名":"品川区","行政区名":"","住所":"旗の台5-15-2","住所(かな)":"","説明(日本語)":"伏見稲荷を信仰する町内有志によって、大正5年創建。朱塗りの鳥居とイチョウやシイの古木などが印象的。今も地域の守護神として慕われている。","説明(英語)":"","電話番号":"","FAX番号":"","営業時間":"","開所時刻":"","閉所時刻":"","定休日":"","利用料金":"","画像URL":"","創設日":"","創設者":"","所在地（基本、名称と同じもの）":"旗の台伏見稲荷神社","名称(中国語簡体字)":"","説明(中国語簡体字)":"","名称(中国語繁体字)":"","説明(中国語繁体字)":"","名称(韓国語)":"","説明(韓国語)":"","名称(ポルトガル語)":"","説明(ポルトガル語)":"","標準地域コード":"http://statdb.nstac.go.jp/lod/sac/C13109"},"geometry":{"type":"Point","coordinates":[139.6994805,35.6046674]}},{"type":"Feature","properties":{"name":"カナリヤ坂","enname":"","カテゴリ":"百景","カテゴリ補足":"古い顔・新しい顔","ジャンル":"観る","ジャンル_1":"","ジャンル_2":"","ジャンル_3":"","季節":"","場所":"","郵便番号":1420064,"都道府県名":"東京都","市区町村名":"品川区","行政区名":"","住所":"旗の台5-11-9","住所(かな)":"","説明(日本語)":"旗の台商店街から荏原第五中学校方面に伸びるちょっと急な坂。昭和30年頃、坂の途中に小鳥屋があり、カナリヤの鳴き声がしていたことから、呼ばれた名が定着した。","説明(英語)":"","電話番号":"","FAX番号":"","営業時間":"","開所時刻":"","閉所時刻":"","定休日":"","利用料金":"","画像URL":"","創設日":"","創設者":"","所在地（基本、名称と同じもの）":"カナリヤ坂","名称(中国語簡体字)":"","説明(中国語簡体字)":"","名称(中国語繁体字)":"","説明(中国語繁体字)":"","名称(韓国語)":"","説明(韓国語)":"","名称(ポルトガル語)":"","説明(ポルトガル語)":"","標準地域コード":"http://statdb.nstac.go.jp/lod/sac/C13109"},"geometry":{"type":"Point","coordinates":[139.7022192,35.6036287]}},{"type":"Feature","properties":{"name":"中延小学校の大楠と中延の森","enname":"","カテゴリ":"百景","カテゴリ補足":"古い顔・新しい顔","ジャンル":"観る","ジャンル_1":"","ジャンル_2":"","ジャンル_3":"","季節":"","場所":"","郵便番号":1420053,"都道府県名":"東京都","市区町村名":"品川区","行政区名":"","住所":"中延1-11-15","住所(かな)":"","説明(日本語)":"大楠は昭和15年に植樹したもの。昭和59年に創立50周年記念行事の一環で周囲にシイを植樹し中延の森となった。","説明(英語)":"","電話番号":"","FAX番号":"","営業時間":"","開所時刻":"","閉所時刻":"","定休日":"","利用料金":"","画像URL":"","創設日":"","創設者":"","所在地（基本、名称と同じもの）":"中延小学校の大楠と中延の森","名称(中国語簡体字)":"","説明(中国語簡体字)":"","名称(中国語繁体字)":"","説明(中国語繁体字)":"","名称(韓国語)":"","説明(韓国語)":"","名称(ポルトガル語)":"","説明(ポルトガル語)":"","標準地域コード":"http://statdb.nstac.go.jp/lod/sac/C13109"},"geometry":{"type":"Point","coordinates":[139.7095016,35.6125667]}},{"type":"Feature","properties":{"name":"中延商店街のにぎわい","enname":"","カテゴリ":"百景","カテゴリ補足":"歴史の足跡、花と緑","ジャンル":"観る","ジャンル_1":"","ジャンル_2":"","ジャンル_3":"","季節":"","場所":"","郵便番号":1420052,"都道府県名":"東京都","市区町村名":"品川区","行政区名":"","住所":"東中延2","住所(かな)":"","説明(日本語)":"荏原中延駅から中延駅まで続く、約330ｍ、120店舗のアーケード商店街。生鮮三品や総菜店が多く軒を連ねる。","説明(英語)":"","電話番号":"","FAX番号":"","営業時間":"","開所時刻":"","閉所時刻":"","定休日":"","利用料金":"","画像URL":"","創設日":"","創設者":"","所在地（基本、名称と同じもの）":"中延商店街のにぎわい","名称(中国語簡体字)":"","説明(中国語簡体字)":"","名称(中国語繁体字)":"","説明(中国語繁体字)":"","名称(韓国語)":"","説明(韓国語)":"","名称(ポルトガル語)":"","説明(ポルトガル語)":"","標準地域コード":"http://statdb.nstac.go.jp/lod/sac/C13109"},"geometry":{"type":"Point","coordinates":[139.7130264,35.6081396]}},{"type":"Feature","properties":{"name":"戸越八幡神社","enname":"","カテゴリ":"百景","カテゴリ補足":"歴史の足跡、花と緑、鎮守の森と祭り","ジャンル":"観る","ジャンル_1":"","ジャンル_2":"","ジャンル_3":"","季節":"","場所":"","郵便番号":1420041,"都道府県名":"東京都","市区町村名":"品川区","行政区名":"","住所":"戸越2-6-33","住所(かな)":"","説明(日本語)":"境内には大きな樹木が繁る、戦国時代の創建と伝えられる戸越の鎮守。社殿には江戸時代から大正時代に奉納された絵馬25面が掛けられている。","説明(英語)":"","電話番号":"","FAX番号":"","営業時間":"","開所時刻":"","閉所時刻":"","定休日":"","利用料金":"","画像URL":"","創設日":"","創設者":"","所在地（基本、名称と同じもの）":"戸越八幡神社","名称(中国語簡体字)":"","説明(中国語簡体字)":"","名称(中国語繁体字)":"","説明(中国語繁体字)":"","名称(韓国語)":"","説明(韓国語)":"","名称(ポルトガル語)":"","説明(ポルトガル語)":"","標準地域コード":"http://statdb.nstac.go.jp/lod/sac/C13109"},"geometry":{"type":"Point","coordinates":[139.7199339,35.6138141]}},{"type":"Feature","properties":{"name":"戸越公園","enname":"","カテゴリ":"百景","カテゴリ補足":"花と緑、文化といこい","ジャンル":"観る","ジャンル_1":"","ジャンル_2":"","ジャンル_3":"","季節":"","場所":"","郵便番号":1420042,"都道府県名":"東京都","市区町村名":"品川区","行政区名":"","住所":"豊町2-1-30","住所(かな)":"","説明(日本語)":"江戸時代の肥後国熊本藩細川家の下屋敷の庭園跡を利用して造られた。池を中心に渓谷や滝、築山などの配置の中を一周する回遊式庭園で大名庭園の面影をとどめている。","説明(英語)":"","電話番号":"","FAX番号":"","営業時間":"","開所時刻":"","閉所時刻":"","定休日":"","利用料金":"","画像URL":"","創設日":"","創設者":"","所在地（基本、名称と同じもの）":"戸越公園","名称(中国語簡体字)":"","説明(中国語簡体字)":"","名称(中国語繁体字)":"","説明(中国語繁体字)":"","名称(韓国語)":"","説明(韓国語)":"","名称(ポルトガル語)":"","説明(ポルトガル語)":"","標準地域コード":"http://statdb.nstac.go.jp/lod/sac/C13109"},"geometry":{"type":"Point","coordinates":[139.7223922,35.6111673]}},{"type":"Feature","properties":{"name":"上神明天祖神社","enname":"","カテゴリ":"百景","カテゴリ補足":"鎮守の森と祭り","ジャンル":"観る","ジャンル_1":"","ジャンル_2":"","ジャンル_3":"","季節":"","場所":"","郵便番号":1420043,"都道府県名":"東京都","市区町村名":"品川区","行政区名":"","住所":"二葉4-4-12","住所(かな)":"","説明(日本語)":"鎌倉時代創建といわれるかつての上蛇窪村の鎮守。この地が蛇窪といわれたように、神社には白蛇伝説が伝えられており、社殿奥の弁天池には、弁天、龍神、白蛇が祀られている。","説明(英語)":"","電話番号":"","FAX番号":"","営業時間":"","開所時刻":"","閉所時刻":"","定休日":"","利用料金":"","画像URL":"","創設日":"","創設者":"","所在地（基本、名称と同じもの）":"上神明天祖神社","名称(中国語簡体字)":"","説明(中国語簡体字)":"","名称(中国語繁体字)":"","説明(中国語繁体字)":"","名称(韓国語)":"","説明(韓国語)":"","名称(ポルトガル語)":"","説明(ポルトガル語)":"","標準地域コード":"http://statdb.nstac.go.jp/lod/sac/C13109"},"geometry":{"type":"Point","coordinates":[139.7151958,35.602482]}},{"type":"Feature","properties":{"name":"東京タワー、モノレールと海の風景","enname":"","カテゴリ":"百景","カテゴリ補足":"古い顔・新しい顔","ジャンル":"観る","ジャンル_1":"","ジャンル_2":"","ジャンル_3":"","季節":"","場所":"","郵便番号":1400003,"都道府県名":"東京都","市区町村名":"品川区","行政区名":"","住所":"八潮5-5-3","住所(かな)":"","説明(日本語)":"かもめ橋、勝島橋に立ち京浜運河を望む。運河上を走るモノレール、そして、遠く東京タワーやレインボーブリッジ、スカイツリーも見られ、都心の水辺の景観が広がる。","説明(英語)":"","電話番号":"","FAX番号":"","営業時間":"","開所時刻":"","閉所時刻":"","定休日":"","利用料金":"","画像URL":"","創設日":"","創設者":"","所在地（基本、名称と同じもの）":"東京タワー、モノレールと海の風景","名称(中国語簡体字)":"","説明(中国語簡体字)":"","名称(中国語繁体字)":"","説明(中国語繁体字)":"","名称(韓国語)":"","説明(韓国語)":"","名称(ポルトガル語)":"","説明(ポルトガル語)":"","標準地域コード":"http://statdb.nstac.go.jp/lod/sac/C13109"},"geometry":{"type":"Point","coordinates":[139.749952,35.5998861]}},{"type":"Feature","properties":{"name":"かもめ橋と京浜運河","enname":"","カテゴリ":"百景","カテゴリ補足":"古い顔・新しい顔","ジャンル":"観る","ジャンル_1":"","ジャンル_2":"","ジャンル_3":"","季節":"","場所":"","郵便番号":1400003,"都道府県名":"東京都","市区町村名":"品川区","行政区名":"","住所":"八潮5-5-3","住所(かな)":"","説明(日本語)":"京浜運河を跨ぎ八潮団地に至る3本の橋の内、唯一の人道専門橋。昭和61年竣工の斜張橋は、優れた技術と景観への配慮が評価され全日本建設技術協会の都建賞に輝いた。","説明(英語)":"","電話番号":"","FAX番号":"","営業時間":"","開所時刻":"","閉所時刻":"","定休日":"","利用料金":"","画像URL":"","創設日":"","創設者":"","所在地（基本、名称と同じもの）":"かもめ橋と京浜運河","名称(中国語簡体字)":"","説明(中国語簡体字)":"","名称(中国語繁体字)":"","説明(中国語繁体字)":"","名称(韓国語)":"","説明(韓国語)":"","名称(ポルトガル語)":"","説明(ポルトガル語)":"","標準地域コード":"http://statdb.nstac.go.jp/lod/sac/C13109"},"geometry":{"type":"Point","coordinates":[139.749952,35.5998861]}},{"type":"Feature","properties":{"name":"みなとが丘ふ頭公園","enname":"","カテゴリ":"百景","カテゴリ補足":"文化といこい","ジャンル":"観る","ジャンル_1":"","ジャンル_2":"","ジャンル_3":"","季節":"","場所":"","郵便番号":1400003,"都道府県名":"東京都","市区町村名":"品川区","行政区名":"","住所":"八潮3-1","住所(かな)":"","説明(日本語)":"緑が多い面積5haを超える都立公園。広々とした階段状の広場や自然を生かした小高い丘、池等があり、展望台からはコンテナふ頭が見える。園内には品川区キャンプ場もある。","説明(英語)":"","電話番号":"","FAX番号":"","営業時間":"","開所時刻":"","閉所時刻":"","定休日":"","利用料金":"","画像URL":"","創設日":"","創設者":"","所在地（基本、名称と同じもの）":"みなとが丘ふ頭公園","名称(中国語簡体字)":"","説明(中国語簡体字)":"","名称(中国語繁体字)":"","説明(中国語繁体字)":"","名称(韓国語)":"","説明(韓国語)":"","名称(ポルトガル語)":"","説明(ポルトガル語)":"","標準地域コード":"http://statdb.nstac.go.jp/lod/sac/C13109"},"geometry":{"type":"Point","coordinates":[139.7620567,35.5991366]}},{"type":"Feature","properties":{"name":"八潮橋","enname":"","カテゴリ":"百景","カテゴリ補足":"古い顔・新しい顔","ジャンル":"観る","ジャンル_1":"","ジャンル_2":"","ジャンル_3":"","季節":"","場所":"","郵便番号":1400003,"都道府県名":"東京都","市区町村名":"品川区","行政区名":"","住所":"八潮1-4","住所(かな)":"","説明(日本語)":"八潮団地と東品川をむすぶパープルブルーの美しい橋。全長414m、逆S字の美しい曲線が京浜運河の上に描かれる。","説明(英語)":"","電話番号":"","FAX番号":"","営業時間":"","開所時刻":"","閉所時刻":"","定休日":"","利用料金":"","画像URL":"","創設日":"","創設者":"","所在地（基本、名称と同じもの）":"八潮橋","名称(中国語簡体字)":"","説明(中国語簡体字)":"","名称(中国語繁体字)":"","説明(中国語繁体字)":"","名称(韓国語)":"","説明(韓国語)":"","名称(ポルトガル語)":"","説明(ポルトガル語)":"","標準地域コード":"http://statdb.nstac.go.jp/lod/sac/C13109"},"geometry":{"type":"Point","coordinates":[139.753407,35.6057827]}},{"type":"Feature","properties":{"name":"八潮団地から見える夕焼け","enname":"","カテゴリ":"百景","カテゴリ補足":"古い顔・新しい顔","ジャンル":"観る","ジャンル_1":"","ジャンル_2":"","ジャンル_3":"","季節":"","場所":"","郵便番号":1400012,"都道府県名":"東京都","市区町村名":"品川区","行政区名":"","住所":"勝島1-4-19","住所(かな)":"","説明(日本語)":"晴れた日にはビルの間からシルエットとなった富士山も現れる。モノレールが走り、京浜運河を行き交う船が日没の水辺の景観を醸し出す。","説明(英語)":"","電話番号":"","FAX番号":"","営業時間":"","開所時刻":"","閉所時刻":"","定休日":"","利用料金":"","画像URL":"","創設日":"","創設者":"","所在地（基本、名称と同じもの）":"八潮団地から見える夕焼け","名称(中国語簡体字)":"","説明(中国語簡体字)":"","名称(中国語繁体字)":"","説明(中国語繁体字)":"","名称(韓国語)":"","説明(韓国語)":"","名称(ポルトガル語)":"","説明(ポルトガル語)":"","標準地域コード":"http://statdb.nstac.go.jp/lod/sac/C13109"},"geometry":{"type":"Point","coordinates":[139.7462522,35.6004554]}},{"type":"Feature","properties":{"name":"東京モノレールと八潮団地","enname":"","カテゴリ":"百景","カテゴリ補足":"古い顔・新しい顔","ジャンル":"観る","ジャンル_1":"","ジャンル_2":"","ジャンル_3":"","季節":"","場所":"","郵便番号":1400012,"都道府県名":"東京都","市区町村名":"品川区","行政区名":"","住所":"勝島1-4-19","住所(かな)":"","説明(日本語)":"昭和58年に「都心型の定住性ある街」をコンセプトに入居の始まった八潮パークタウン。モノレールと運河と団地、今も昔も変わらぬ人の温もりを感じる風景が見られる。","説明(英語)":"","電話番号":"","FAX番号":"","営業時間":"","開所時刻":"","閉所時刻":"","定休日":"","利用料金":"","画像URL":"","創設日":"","創設者":"","所在地（基本、名称と同じもの）":"東京モノレールと八潮団地","名称(中国語簡体字)":"","説明(中国語簡体字)":"","名称(中国語繁体字)":"","説明(中国語繁体字)":"","名称(韓国語)":"","説明(韓国語)":"","名称(ポルトガル語)":"","説明(ポルトガル語)":"","標準地域コード":"http://statdb.nstac.go.jp/lod/sac/C13109"},"geometry":{"type":"Point","coordinates":[139.7462522,35.6004554]}},{"type":"Feature","properties":{"name":"八潮団地と緑道公園","enname":"","カテゴリ":"百景","カテゴリ補足":"文化といこい、古い顔・新しい顔","ジャンル":"観る","ジャンル_1":"","ジャンル_2":"","ジャンル_3":"","季節":"","場所":"","郵便番号":1400012,"都道府県名":"東京都","市区町村名":"品川区","行政区名":"","住所":"勝島1-4-19","住所(かな)":"","説明(日本語)":"八潮団地の足元、京浜運河に沿って約2.5km続く都立の緑道公園は、潮風を感じる水辺の遊歩道。大きく育った樹木や四季の草花が憩いの場を提供している。","説明(英語)":"","電話番号":"","FAX番号":"","営業時間":"","開所時刻":"","閉所時刻":"","定休日":"","利用料金":"","画像URL":"","創設日":"","創設者":"","所在地（基本、名称と同じもの）":"八潮団地と緑道公園","名称(中国語簡体字)":"","説明(中国語簡体字)":"","名称(中国語繁体字)":"","説明(中国語繁体字)":"","名称(韓国語)":"","説明(韓国語)":"","名称(ポルトガル語)":"","説明(ポルトガル語)":"","標準地域コード":"http://statdb.nstac.go.jp/lod/sac/C13109"},"geometry":{"type":"Point","coordinates":[139.7462522,35.6004554]}},{"type":"Feature","properties":{"name":"スポーツの森（大井ふ頭中央海浜公園）","enname":"","カテゴリ":"百景","カテゴリ補足":"文化といこい","ジャンル":"観る","ジャンル_1":"","ジャンル_2":"","ジャンル_3":"","季節":"","場所":"","郵便番号":1400003,"都道府県名":"東京都","市区町村名":"品川区","行政区名":"","住所":"八潮4-1","住所(かな)":"","説明(日本語)":"陸上競技場、球技場、野球場、テニスコートを整備した都立の総合スポーツ施設。2020年東京オリンピックでは、ホッケー会場となる。","説明(英語)":"","電話番号":"","FAX番号":"","営業時間":"","開所時刻":"","閉所時刻":"","定休日":"","利用料金":"","画像URL":"","創設日":"","創設者":"","所在地（基本、名称と同じもの）":"スポーツの森（大井ふ頭中央海浜公園）","名称(中国語簡体字)":"","説明(中国語簡体字)":"","名称(中国語繁体字)":"","説明(中国語繁体字)":"","名称(韓国語)":"","説明(韓国語)":"","名称(ポルトガル語)":"","説明(ポルトガル語)":"","標準地域コード":"http://statdb.nstac.go.jp/lod/sac/C13109"},"geometry":{"type":"Point","coordinates":[139.7526691,35.5912345]}},{"type":"Feature","properties":{"name":"なぎさの森（大井ふ頭中央海浜公園）","enname":"","カテゴリ":"百景","カテゴリ補足":"文化といこい","ジャンル":"観る","ジャンル_1":"","ジャンル_2":"","ジャンル_3":"","季節":"","場所":"","郵便番号":1400003,"都道府県名":"東京都","市区町村名":"品川区","行政区名":"","住所":"八潮4-2","住所(かな)":"","説明(日本語)":"京浜運河に沿って水辺を楽しめる都立の海上公園。干潟には多くの野鳥が集まり、観察小屋から観察でき、人工なぎさでは釣りが楽しめる。","説明(英語)":"","電話番号":"","FAX番号":"","営業時間":"","開所時刻":"","閉所時刻":"","定休日":"","利用料金":"","画像URL":"","創設日":"","創設者":"","所在地（基本、名称と同じもの）":"なぎさの森（大井ふ頭中央海浜公園）","名称(中国語簡体字)":"","説明(中国語簡体字)":"","名称(中国語繁体字)":"","説明(中国語繁体字)":"","名称(韓国語)":"","説明(韓国語)":"","名称(ポルトガル語)":"","説明(ポルトガル語)":"","標準地域コード":"http://statdb.nstac.go.jp/lod/sac/C13109"},"geometry":{"type":"Point","coordinates":[139.7497858,35.5927536]}},{"type":"Feature","properties":{"name":"船の科学館がある風景","enname":"","カテゴリ":"百景","カテゴリ補足":"文化といこい、古い顔・新しい顔","ジャンル":"観る","ジャンル_1":"","ジャンル_2":"","ジャンル_3":"","季節":"","場所":"","郵便番号":1350092,"都道府県名":"東京都","市区町村名":"品川区","行政区名":"","住所":"東八潮3-1","住所(かな)":"","説明(日本語)":"昭和49年に「海と船の文化」をテーマにして開館した海洋博物館。大型客船を意匠した本館は東京港のランドマークとなっている。現在、本館展示は公開休止中。","説明(英語)":"","電話番号":"","FAX番号":"","営業時間":"","開所時刻":"","閉所時刻":"","定休日":"","利用料金":"","画像URL":"","創設日":"","創設者":"","所在地（基本、名称と同じもの）":"船の科学館がある風景","名称(中国語簡体字)":"","説明(中国語簡体字)":"","名称(中国語繁体字)":"","説明(中国語繁体字)":"","名称(韓国語)":"","説明(韓国語)":"","名称(ポルトガル語)":"","説明(ポルトガル語)":"","標準地域コード":"http://statdb.nstac.go.jp/lod/sac/C13109"},"geometry":{"type":"Point","coordinates":[139.7730742,35.6196731]}},{"type":"Feature","properties":{"name":"しながわ宿場まつり","enname":"","カテゴリ":"百景","カテゴリ補足":"鎮守の森と祭り","ジャンル":"観る","ジャンル_1":"","ジャンル_2":"","ジャンル_3":"","季節":"","場所":"","郵便番号":"140-0001","都道府県名":"東京都","市区町村名":"品川区","行政区名":"","住所":"北品川〜南品川","住所(かな)":"","説明(日本語)":"東海道第一の宿場として栄えた品川宿周辺で、平成2年から続くまつり。豪華な衣装をまとった「おいらん道中」や「江戸風俗行列」などのパレードは、江戸情緒を感じさせる。","説明(英語)":"","電話番号":"","FAX番号":"","営業時間":"","開所時刻":"","閉所時刻":"","定休日":"","利用料金":"","画像URL":"","創設日":"","創設者":"","所在地（基本、名称と同じもの）":"しながわ宿場まつり","名称(中国語簡体字)":"","説明(中国語簡体字)":"","名称(中国語繁体字)":"","説明(中国語繁体字)":"","名称(韓国語)":"","説明(韓国語)":"","名称(ポルトガル語)":"","説明(ポルトガル語)":"","標準地域コード":"http://statdb.nstac.go.jp/lod/sac/C13109"},"geometry":{"type":"Point","coordinates":[139.7454267,35.61736717]}},{"type":"Feature","properties":{"name":"天王洲エリアの水辺の風景","enname":"","カテゴリ":"百景","カテゴリ補足":"花と緑","ジャンル":"観る","ジャンル_1":"","ジャンル_2":"","ジャンル_3":"","季節":"","場所":"","郵便番号":"140-0002","都道府県名":"東京都","市区町村名":"品川区","行政区名":"","住所":"東品川2","住所(かな)":"","説明(日本語)":"天王洲運河に沿って造られた「ボードウオーク」、ドラマロケなどでおなじみの「天王洲ふれあい橋」、対岸からの夜景も美しい。","説明(英語)":"","電話番号":"","FAX番号":"","営業時間":"","開所時刻":"","閉所時刻":"","定休日":"","利用料金":"","画像URL":"","創設日":"","創設者":"","所在地（基本、名称と同じもの）":"天王洲エリアの水辺の風景","名称(中国語簡体字)":"","説明(中国語簡体字)":"","名称(中国語繁体字)":"","説明(中国語繁体字)":"","名称(韓国語)":"","説明(韓国語)":"","名称(ポルトガル語)":"","説明(ポルトガル語)":"","標準地域コード":"http://statdb.nstac.go.jp/lod/sac/C13109"},"geometry":{"type":"Point","coordinates":[139.748193,35.622461]}},{"type":"Feature","properties":{"name":"目黒川の桜","enname":"","カテゴリ":"百景","カテゴリ補足":"花と緑","ジャンル":"観る","ジャンル_1":"","ジャンル_2":"","ジャンル_3":"","季節":"","場所":"","郵便番号":"141-0031","都道府県名":"東京都","市区町村名":"品川区","行政区名":"","住所":"西五反田、東五反田、大崎、北品川","住所(かな)":"","説明(日本語)":"目黒川の両岸に続く桜の名所。春には美しい桜並木、冬の夜にはLED電球でピンク色に染まった「冬の桜?」を眺めることができる。","説明(英語)":"","電話番号":"","FAX番号":"","営業時間":"","開所時刻":"","閉所時刻":"","定休日":"","利用料金":"","画像URL":"","創設日":"","創設者":"","所在地（基本、名称と同じもの）":"目黒川の桜","名称(中国語簡体字)":"","説明(中国語簡体字)":"","名称(中国語繁体字)":"","説明(中国語繁体字)":"","名称(韓国語)":"","説明(韓国語)":"","名称(ポルトガル語)":"","説明(ポルトガル語)":"","標準地域コード":"http://statdb.nstac.go.jp/lod/sac/C13109"},"geometry":{"type":"Point","coordinates":[139.749734,35.61729]}},{"type":"Feature","properties":{"name":"ねむの木の庭","enname":"","カテゴリ":"百景","カテゴリ補足":"花と緑、文化といこい","ジャンル":"観る","ジャンル_1":"","ジャンル_2":"","ジャンル_3":"","季節":"","場所":"","郵便番号":"141-0022","都道府県名":"東京都","市区町村名":"品川区","行政区名":"","住所":"東五反田5−19−5","住所(かな)":"","説明(日本語)":"旧正田邸跡地に開園した区立公園。バラの花「プリンセス・ミチコ」をはじめ、様々な花や草木が四季を通して楽しめる。","説明(英語)":"","電話番号":"","FAX番号":"","営業時間":"","開所時刻":"","閉所時刻":"","定休日":"","利用料金":"","画像URL":"","創設日":"","創設者":"","所在地（基本、名称と同じもの）":"ねむの木の庭","名称(中国語簡体字)":"","説明(中国語簡体字)":"","名称(中国語繁体字)":"","説明(中国語繁体字)":"","名称(韓国語)":"","説明(韓国語)":"","名称(ポルトガル語)":"","説明(ポルトガル語)":"","標準地域コード":"http://statdb.nstac.go.jp/lod/sac/C13109"},"geometry":{"type":"Point","coordinates":[139.725858,35.626568]}},{"type":"Feature","properties":{"name":"五反田ふれあい水辺広場","enname":"","カテゴリ":"百景","カテゴリ補足":"花と緑、文化といこい","ジャンル":"観る","ジャンル_1":"","ジャンル_2":"","ジャンル_3":"","季節":"","場所":"","郵便番号":"141-0022","都道府県名":"東京都","市区町村名":"品川区","行政区名":"","住所":"東五反田2−9−11","住所(かな)":"","説明(日本語)":"目黒川沿いの親水公園。川に臨む広場やカフェスペースもあり、憩いの場となっている。","説明(英語)":"","電話番号":"","FAX番号":"","営業時間":"","開所時刻":"","閉所時刻":"","定休日":"","利用料金":"","画像URL":"","創設日":"","創設者":"","所在地（基本、名称と同じもの）":"五反田ふれあい水辺広場","名称(中国語簡体字)":"","説明(中国語簡体字)":"","名称(中国語繁体字)":"","説明(中国語繁体字)":"","名称(韓国語)":"","説明(韓国語)":"","名称(ポルトガル語)":"","説明(ポルトガル語)":"","標準地域コード":"http://statdb.nstac.go.jp/lod/sac/C13109"},"geometry":{"type":"Point","coordinates":[139.726103,35.624344]}},{"type":"Feature","properties":{"name":"しながわ水族館","enname":"","カテゴリ":"百景","カテゴリ補足":"古い顔・新しい顔","ジャンル":"観る","ジャンル_1":"","ジャンル_2":"","ジャンル_3":"","季節":"","場所":"","郵便番号":"140-0012","都道府県名":"東京都","市区町村名":"品川区","行政区名":"","住所":"勝島3−2−1","住所(かな)":"","説明(日本語)":"しながわ区民公園内にある水族館。ロマンチックなトンネル水槽や間近で見られるイルカショー、アシカショーが大人気。","説明(英語)":"","電話番号":"","FAX番号":"","営業時間":"","開所時刻":"","閉所時刻":"","定休日":"","利用料金":"","画像URL":"","創設日":"","創設者":"","所在地（基本、名称と同じもの）":"しながわ水族館","名称(中国語簡体字)":"","説明(中国語簡体字)":"","名称(中国語繁体字)":"","説明(中国語繁体字)":"","名称(韓国語)":"","説明(韓国語)":"","名称(ポルトガル語)":"","説明(ポルトガル語)":"","標準地域コード":"http://statdb.nstac.go.jp/lod/sac/C13109"},"geometry":{"type":"Point","coordinates":[139.737501,35.588476]}},{"type":"Feature","properties":{"name":"桜新道の桜並木","enname":"","カテゴリ":"百景","カテゴリ補足":"花と緑","ジャンル":"観る","ジャンル_1":"","ジャンル_2":"","ジャンル_3":"","季節":"","場所":"","郵便番号":"140-0013","都道府県名":"東京都","市区町村名":"品川区","行政区名":"","住所":"南大井","住所(かな)":"","説明(日本語)":"薄いピンク色と濃いピンク色の2種類の八重桜が大きく育ち、美しいアーチを架ける。X状の桜新道歩道橋からの眺めもすばらしい。","説明(英語)":"","電話番号":"","FAX番号":"","営業時間":"","開所時刻":"","閉所時刻":"","定休日":"","利用料金":"","画像URL":"","創設日":"","創設者":"","所在地（基本、名称と同じもの）":"桜新道の桜並木","名称(中国語簡体字)":"","説明(中国語簡体字)":"","名称(中国語繁体字)":"","説明(中国語繁体字)":"","名称(韓国語)":"","説明(韓国語)":"","名称(ポルトガル語)":"","説明(ポルトガル語)":"","標準地域コード":"http://statdb.nstac.go.jp/lod/sac/C13109"},"geometry":{"type":"Point","coordinates":[139.735612,35.596131]}},{"type":"Feature","properties":{"name":"立会川の坂本龍馬像","enname":"","カテゴリ":"百景","カテゴリ補足":"歴史の足跡","ジャンル":"観る","ジャンル_1":"","ジャンル_2":"","ジャンル_3":"","季節":"","場所":"","郵便番号":"140-0011","都道府県名":"東京都","市区町村名":"品川区","行政区名":"","住所":"東大井2−25","住所(かな)":"","説明(日本語)":"黒船警固のため土佐藩下屋敷に通っていたという若き日の龍馬のブロンズ像。新浜川公園には、復元された浜川砲台もある。","説明(英語)":"","電話番号":"","FAX番号":"","営業時間":"","開所時刻":"","閉所時刻":"","定休日":"","利用料金":"","画像URL":"","創設日":"","創設者":"","所在地（基本、名称と同じもの）":"立会川の坂本龍馬像","名称(中国語簡体字)":"","説明(中国語簡体字)":"","名称(中国語繁体字)":"","説明(中国語繁体字)":"","名称(韓国語)":"","説明(韓国語)":"","名称(ポルトガル語)":"","説明(ポルトガル語)":"","標準地域コード":"http://statdb.nstac.go.jp/lod/sac/C13109"},"geometry":{"type":"Point","coordinates":[139.739922,35.598592]}},{"type":"Feature","properties":{"name":"文庫の森","enname":"","カテゴリ":"百景","カテゴリ補足":"花と緑、文化といこい","ジャンル":"観る","ジャンル_1":"","ジャンル_2":"","ジャンル_3":"","季節":"","場所":"","郵便番号":"142-0042","都道府県名":"東京都","市区町村名":"品川区","行政区名":"","住所":"豊町1−16−23","住所(かな)":"","説明(日本語)":"国文学研究資料館の跡地に平成25年に全面開園した、防災機能を備えた公園。既存の池や樹木を生かし、四季の花々が植えられている。旧三井文庫があったことから命名された。","説明(英語)":"","電話番号":"","FAX番号":"","営業時間":"","開所時刻":"","閉所時刻":"","定休日":"","利用料金":"","画像URL":"","創設日":"","創設者":"","所在地（基本、名称と同じもの）":"文庫の森","名称(中国語簡体字)":"","説明(中国語簡体字)":"","名称(中国語繁体字)":"","説明(中国語繁体字)":"","名称(韓国語)":"","説明(韓国語)":"","名称(ポルトガル語)":"","説明(ポルトガル語)":"","標準地域コード":"http://statdb.nstac.go.jp/lod/sac/C13109"},"geometry":{"type":"Point","coordinates":[139.720556,35.612275]}},{"type":"Feature","properties":{"name":"旗岡連合神輿渡御<9月>","enname":"","カテゴリ":"百景","カテゴリ補足":"鎮守の森と祭り","ジャンル":"観る","ジャンル_1":"","ジャンル_2":"","ジャンル_3":"","季節":"","場所":"","郵便番号":"140-0000","都道府県名":"東京都","市区町村名":"品川区","行政区名":"","住所":"","住所(かな)":"","説明(日本語)":"8町会の神輿7基が旗の台、中延エリアを3時間以上かけて勇壮に練り歩く姿は圧巻。威勢の良い掛け声のもと、辺りは熱気に包まれる。","説明(英語)":"","電話番号":"","FAX番号":"","営業時間":"","開所時刻":"","閉所時刻":"","定休日":"","利用料金":"","画像URL":"","創設日":"","創設者":"","所在地（基本、名称と同じもの）":"旗岡連合神輿渡御<9月>","名称(中国語簡体字)":"","説明(中国語簡体字)":"","名称(中国語繁体字)":"","説明(中国語繁体字)":"","名称(韓国語)":"","説明(韓国語)":"","名称(ポルトガル語)":"","説明(ポルトガル語)":"","標準地域コード":"http://statdb.nstac.go.jp/lod/sac/C13109"},"geometry":{"type":"Point","coordinates":[139.730186,35.609226]}},{"type":"Feature","properties":{"name":"神明児童遊園","enname":"","カテゴリ":"百景","カテゴリ補足":"文化といこい","ジャンル":"遊ぶ","ジャンル_1":"","ジャンル_2":"","ジャンル_3":"","季節":"","場所":"","郵便番号":"142-0043","都道府県名":"東京都","市区町村名":"品川区","行政区名":"","住所":"二葉1−1","住所(かな)":"","説明(日本語)":"下神明駅に近く、地元の人たちに親しまれている通称「タコ公園」。子ダコと、すべり台になっている親ダコは、いつも子どもたちでにぎわっている。","説明(英語)":"","電話番号":"","FAX番号":"","営業時間":"","開所時刻":"","閉所時刻":"","定休日":"","利用料金":"","画像URL":"","創設日":"","創設者":"","所在地（基本、名称と同じもの）":"神明児童遊園","名称(中国語簡体字)":"","説明(中国語簡体字)":"","名称(中国語繁体字)":"","説明(中国語繁体字)":"","名称(韓国語)":"","説明(韓国語)":"","名称(ポルトガル語)":"","説明(ポルトガル語)":"","標準地域コード":"http://statdb.nstac.go.jp/lod/sac/C13109"},"geometry":{"type":"Point","coordinates":[139.725514,35.608279]}},{"type":"Feature","properties":{"name":"新幹線車両基地","enname":"","カテゴリ":"百景","カテゴリ補足":"歴史の足跡","ジャンル":"観る","ジャンル_1":"","ジャンル_2":"","ジャンル_3":"","季節":"","場所":"","郵便番号":"140-0003","都道府県名":"東京都","市区町村名":"品川区","行政区名":"","住所":"八潮3","住所(かな)":"","説明(日本語)":"新幹線の車両が集まる「大井車両基地」。平成15年には、東海道新幹線品川駅が開業。大井中央陸橋からは、新型の新幹線や時には検査車両「ドクターイエロー」も見ることができる。","説明(英語)":"","電話番号":"","FAX番号":"","営業時間":"","開所時刻":"","閉所時刻":"","定休日":"","利用料金":"","画像URL":"","創設日":"","創設者":"","所在地（基本、名称と同じもの）":"新幹線車両基地","名称(中国語簡体字)":"","説明(中国語簡体字)":"","名称(中国語繁体字)":"","説明(中国語繁体字)":"","名称(韓国語)":"","説明(韓国語)":"","名称(ポルトガル語)":"","説明(ポルトガル語)":"","標準地域コード":"http://statdb.nstac.go.jp/lod/sac/C13109"},"geometry":{"type":"Point","coordinates":[139.758827,35.585933]}}]}